id,latitude,longitude,numberOfRacks,skytrainStationName,streetName,streetNumber,streetSide
1,49.2840955,-123.106071,1,,Abbott St,134,East
2,49.2834427,-123.1064141,2,,Abbott St,216,East
3,49.2795926,-123.1078211,1,,Abbott St,603,West
4,49.2793501,-123.1078143,1,,Abbott St,623,West
5,49.2793435,-123.1074331,1,,Abbott St,628,East
6,49.2901583,-123.1312417,1,,Alberni St,1600,North
7,49.2664455,-123.1105766,2,,Alberta St,2104,East
8,49.2664455,-123.1105766,2,,Alberta St,2104,East
9,49.2679307,-123.1865956,1,,Alma St,2083,West
10,49.2631462,-123.186216,1,,Alma St,2607,West
11,49.2630718,-123.1861479,1,,Alma St,2621,West
12,49.262292,-123.1532351,1,,Arbutus St,2665,West
13,49.2620673,-123.1527473,1,,Arbutus St,2696,East
14,49.2644805,-123.171416,1,,Bayswater St,2475,West
15,49.2809603,-123.1087017,2,,Beatty St,510,East
16,49.2804969,-123.109298,2,,Beatty St,546,East
17,49.2785166,-123.1131078,2,,Beatty St,733,West
18,49.2775706,-123.1134436,2,,Beatty St,788,East
19,49.2771786,-123.1140883,5,,Beatty St,808,East
20,49.2773076,-123.1148482,2,,Beatty St,837,West
21,49.2645708,-123.177737,1,,Blenheim St,2500,West
22,49.2327725,-123.0237625,1,,Boundary Rd,5675,West
23,49.2871145,-123.1178602,2,,Burrard St,401,West
24,49.2801681,-123.1271342,1,,Burrard St,1088,East
25,49.2681554,-123.1454132,1,,Burrard St,1980,East
26,49.2640931,-123.1460681,1,,Burrard St,2445,West
27,49.2856991,-123.1271568,1,,Bute St,814,East
28,49.2840173,-123.108771,2,,Cambie St,220,East
29,49.2829497,-123.1091677,1,,Cambie St,322,East
30,49.2637207,-123.1147658,1,,Cambie St,548,East
31,49.2777318,-123.1162302,3,,Cambie St,845,West
32,49.2756765,-123.1179733,2,,Cambie St,1008,South
33,49.2645598,-123.1151484,2,,Cambie St,2335,West
34,49.2595283,-123.1153338,2,,Cambie St,2893,West
35,49.2592641,-123.1152031,1,,Cambie St,2925,West
36,49.2558194,-123.1153698,1,,Cambie St,3305,West
37,49.2544865,-123.1148693,1,,Cambie St,3440,East
38,49.2497026,-123.1152041,1,,Cambie St,4030,East
39,49.2495961,-123.1151991,1,,Cambie St,4050,East
40,49.2096948,-123.1161556,4,Marine Drive,Cambie St,8430,East
41,49.2088598,-123.116863,1,,Cambie St,8500,East
42,49.2817651,-123.1041945,1,,Carrall St,360,East
43,49.2763835,-123.1445046,6,,Chestnut St,1100,East
44,49.2737894,-123.0775553,2,,Clark Drive,1215,West
45,49.2723686,-123.0776691,3,,Clark Drive,1345,West
46,49.2657659,-123.1095961,2,,Columbia St,203,North
47,49.2821393,-123.1020496,1,,Columbia St,302,East
48,49.2822562,-123.1024296,1,,Columbia St,303,West
49,49.275432,-123.0698104,1,,Commercial Drive,1025,West
50,49.2750133,-123.0697459,2,,Commercial Drive,1045,West
51,49.2745282,-123.069861,2,,Commercial Drive,1111,West
52,49.2744038,-123.0693904,1,,Commercial Drive,1132,East
53,49.274431,-123.0697538,1,,Commercial Drive,1135,West
54,49.2738497,-123.069413,1,,Commercial Drive,1204,East
55,49.2725041,-123.0697856,1,,Commercial Drive,1365,West
56,49.2701543,-123.0694612,1,,Commercial Drive,1620,East
57,49.2697401,-123.0698958,1,,Commercial Drive,1675,West
58,49.2648302,-123.0694324,1,,Commercial Drive,2210,East
59,49.2641607,-123.0699528,1,,Commercial Drive,2279,West
60,49.264293,-123.0695535,1,,Commercial Drive,2290,East
61,49.2613708,-123.0697964,1,,Commercial Drive,2598,East
62,49.2601499,-123.0701941,2,,Commercial Drive,2733,West
63,49.2589765,-123.0700724,3,,Commercial Drive,2879,West
64,49.2829271,-123.1068858,1,,Cordova St,100,South
65,49.2824309,-123.1013005,1,,Cordova St,119,North
66,49.2726896,-123.1487182,1,,Cornwall Av,1941,North
67,49.2827291,-123.1207375,1,,Cornwall Av,1945,North
68,49.2374941,-123.0321438,1,,Crowley,3425,North
69,49.2709603,-123.1476327,2,,Cypress St,1670,East
70,49.2743666,-123.1222883,1,,Davie St,216,South
71,49.2775196,-123.1270611,1,,Davie St,746,North
72,49.2822836,-123.1343653,1,,Davie St,1248,South
73,49.2867692,-123.1413041,1,,Davie St,1762,South
74,49.2924885,-123.1343324,1,,Denman St,679,West
75,49.2917744,-123.1345824,1,,Denman St,768,East
76,49.2912037,-123.1362474,1,,Denman St,823,West
77,49.2902476,-123.1375478,1,,Denman St,935,West
78,49.2891824,-123.1392249,3,,Denman St,1015,West
79,49.2883203,-123.1402162,5,,Denman St,1100,East
80,49.2876782,-123.1410182,1,,Denman St,1156,East
81,49.2571218,-123.1847928,1,,Dunbar St,3322,East
82,49.2570089,-123.1853828,1,,Dunbar St,3335,West
83,49.2559503,-123.1847742,1,,Dunbar St,3468,East
84,49.2543269,-123.185494,1,,Dunbar St,3637,West
85,49.2486203,-123.1849256,2,,Dunbar St,4250,East
86,49.2474605,-123.1855698,1,,Dunbar St,4355,West
87,49.2472524,-123.1856349,1,,Dunbar St,4395,West
88,49.2468425,-123.1850517,1,,Dunbar St,4428,East
89,49.2463055,-123.1854199,1,,Dunbar St,4497,West
90,49.2456032,-123.1856517,1,,Dunbar St,4555,West
91,49.2451468,-123.1855716,1,,Dunbar St,4603,West
92,49.2357448,-123.1853198,1,,Dunbar St,5587,West
93,49.2832322,-123.0955061,2,,Dunlevy Av,143,West
94,49.2804447,-123.1107314,2,,Dunsmuir St,111,East
95,49.2849343,-123.1179274,1,,Dunsmuir St,885,North
96,49.2845427,-123.1183473,1,,Dunsmuir St,888,South
97,49.2612261,-123.0986102,1,,E 11th Av,295,North
98,49.2584723,-123.0701487,1,,E 13th Av,1680,South
99,49.2576737,-123.1016572,3,,E 15th Av,175,North
100,49.2573411,-123.0907556,2,,E 15th Av,607,North
101,49.2572938,-123.0902815,1,,E 15th Av,639,North
102,49.2572661,-123.0896467,2,,E 15th Av,665,North
103,49.2442368,-123.0449129,3,29th Ave,E 29th Av,2790,South
104,49.2683207,-123.0995135,2,,E 2nd Ave,238,South
105,49.2679414,-123.1023448,1,,E 3rd Av,112,South
106,49.267526,-123.1026604,1,,E 4th Av,127,North
107,49.2675861,-123.1019343,1,,E 4th Av,137,North
108,49.2658006,-123.1045328,1,,E 6th Av,7,North
109,49.2657427,-123.1030625,2,,E 6th Av,73,North
110,49.2644336,-123.1015759,2,,E 7th Av,156,South
111,49.2637886,-123.1051003,4,,E 8th St,5,South
112,49.2621968,-123.0742766,1,,E Broadway,1464,South
113,49.2617435,-123.0561247,2,,E Broadway,2406,South
114,49.2822161,-123.1032141,1,,E Cordova St,44,South
115,49.2820512,-123.1009043,2,,E Cordova St,138,South
116,49.2783202,-123.0909143,1,,E Georgia St,628,South
117,49.2829899,-123.1106177,1,,E Hastings St,326,South
118,49.2813512,-123.0924716,1,,E Hastings St,533,North
119,49.2813512,-123.0924716,1,,E Hastings St,533,North
120,49.284772,-123.1121484,1,,E Hastings St,573,North
121,49.2808729,-123.0902928,1,,E Hastings St,660,South
122,49.2809016,-123.0901347,1,,E Hastings St,678,South
123,49.2810138,-123.0899689,1,,E Hastings St,684,South
124,49.2812354,-123.0859147,1,,E Hastings St,855,North
125,49.2813408,-123.0854301,1,,E Hastings St,879,North
126,49.2812279,-123.0850699,1,,E Hastings St,895,North
127,49.2811651,-123.0773203,3,,E Hastings St,1298,South
128,49.281125,-123.0718135,1,,E Hastings St,1618,South
129,49.281125,-123.0718135,1,,E Hastings St,1618,South
130,49.2812757,-123.0477149,2,,E Hastings St,2769,North
131,49.2814105,-123.0302762,1,,E Hastings St,3423,North
132,49.2812936,-123.0295019,1,,E Hastings St,3435,North
133,49.2812535,-123.0292345,1,,E Hastings St,3475,North
134,49.2812961,-123.0258283,1,,E Hastings St,3599,North
135,49.2805518,-123.0735594,3,,E Pender St,1523,North
136,49.2561313,-123.090098,1,,Fraser St,3213,West
137,49.2559783,-123.0901728,1,,Fraser St,3227,West
138,49.2539547,-123.0901929,2,,Fraser St,3485,West
139,49.2464384,-123.0898659,1,,Fraser St,4304,East
140,49.2462905,-123.0900347,2,,Fraser St,4326,East
141,49.2441215,-123.0898514,1,,Fraser St,4588,East
142,49.2343752,-123.0901076,1,,Fraser St,5550,East
143,49.2308508,-123.0909761,1,,Fraser St,5907,West
144,49.2307712,-123.090257,1,,Fraser St,5914,East
145,49.2290964,-123.0909499,1,,Fraser St,6105,West
146,49.2281625,-123.0903817,1,,Fraser St,6204,East
147,49.2281521,-123.091032,1,,Fraser St,6207,West
148,49.227214,-123.0909656,2,,Fraser St,6305,West
149,49.2253215,-123.0911397,1,,Fraser St,6505,West
150,49.2778993,-123.0971991,1,,Gore St,747,West
151,49.2787653,-123.1237457,1,,Granville St,1043,West
152,49.2781493,-123.1252321,4,,Granville St,1117,West
153,49.2778876,-123.1257331,1,,Granville St,1149,West
154,49.2638493,-123.1389784,1,,Granville St,2447,West
155,49.262401,-123.1382603,1,,Granville St,2600,East
156,49.2613028,-123.13899,1,,Granville St,2723,West
157,49.2609712,-123.1389177,1,,Granville St,2775,West
158,49.2605535,-123.1389029,1,,Granville St,2801,West
159,49.2584811,-123.1390008,1,,Granville St,3047,West
160,49.2581447,-123.1391521,1,,Granville St,3097,North
161,49.2575934,-123.1390936,1,,Granville St,3149,West
162,49.2130177,-123.1400089,1,,Granville St,8002,East
163,49.2117893,-123.1400549,1,,Granville St,8168,East
164,49.2116601,-123.1407641,1,,Granville St,8273,West
165,49.2101079,-123.1407524,1,,Granville St,8435,West
166,49.2074523,-123.1409005,1,,Granville St,8679,West
167,49.2072834,-123.140847,1,,Granville St,8697,West
168,49.2782391,-123.1165903,1,,Hamilton St,858,East
169,49.2780568,-123.1173212,1,,Hamilton St,883,West
170,49.2779748,-123.1169051,1,,Hamilton St,888,North
171,49.2632862,-123.1198763,1,,Heather St,2530,East
172,49.2571247,-123.1202315,1,,Heather St,3195,West
173,49.2807846,-123.0897068,1,,Heatley Av,409,West
174,49.2771216,-123.123076,1,,Helmcken St,508,South
175,49.2780063,-123.1235633,2,,Helmcken St,609,West
176,49.2780063,-123.1235633,3,,Helmcken St,609,North
177,49.2780739,-123.1242036,1,,Helmcken St,649,West
178,49.2830465,-123.1109647,2,,Homer St,420,East
179,49.282408,-123.1122003,1,,Homer St,514,East
180,49.2800073,-123.1166826,3,,Homer St,777,West
181,49.2789114,-123.1173942,1,,Homer St,856,East
182,49.2746087,-123.1236911,1,,Homer St,1238,East
183,49.2850412,-123.1178533,1,,Hornby St,586,East
184,49.2824313,-123.1225062,2,,Hornby St,815,West
185,49.2789498,-123.1278804,1,,Hornby St,1177,West
186,49.2761799,-123.1317956,1,,Hornby St,1401,West
187,49.2761799,-123.1317956,1,,Hornby St,1401,West
188,49.2842809,-123.1179663,1,,Howe St,625,West
189,49.2791327,-123.1255936,1,,Howe St,1095,West
190,49.2742562,-123.1319778,1,,Howe St,1512,East
191,49.2846377,-123.0931422,3,,Jackson Av,20,East
192,49.2834546,-123.133199,1,,Jervis St,1100,East
193,49.2377193,-123.03217,1,,Joyce St,5160,East
194,49.2793684,-123.0988074,1,,Keefer St,232,South
195,49.2827291,-123.1207375,1,,Keith St,2300,West
196,49.260802,-123.0971636,1,,Kingsway,359,North
197,49.2578684,-123.0937133,1,,Kingsway,500,South
198,49.2570411,-123.0913394,1,,Kingsway,612,South
199,49.2557183,-123.0880464,1,,Kingsway,776,South
200,49.2547316,-123.0856086,3,,Kingsway,898,South
201,49.2541657,-123.0848343,1,,Kingsway,934,South
202,49.2535391,-123.0825535,2,,Kingsway,1055,North
203,49.2522839,-123.0807477,1,,Kingsway,1170,South
204,49.2511522,-123.0785071,1,,Kingsway,1284,South
205,49.251542,-123.0782121,1,,Kingsway,1299,North
206,49.2513841,-123.0776444,1,,Kingsway,1303,North
207,49.2511592,-123.0775491,1,,Kingsway,1327,North
208,49.2504665,-123.0771411,1,,Kingsway,1346,South
209,49.2502563,-123.0757408,1,,Kingsway,1409,North
210,49.2496677,-123.0742605,1,,Kingsway,1459,North
211,49.2494794,-123.0739148,1,,Kingsway,1475,North
212,49.2459025,-123.0675206,1,,Kingsway,1850,South
213,49.2443029,-123.0629489,1,,Kingsway,2127,North
214,49.2418316,-123.0586188,3,,Kingsway,2298,South
215,49.2416188,-123.0580178,3,,Kingsway,2310,South
216,49.239444,-123.053583,1,,Kingsway,2536,South
217,49.2360477,-123.0451091,1,,Kingsway,2934,South
218,49.2356388,-123.0420709,1,,Kingsway,3012,South
219,49.2317297,-123.0299525,1,,Kingsway,3490,South
220,49.2322829,-123.0278035,1,,Kingsway,3541,North
221,49.280928,-123.0259438,2,,Kootenay St,405,West
222,49.2680934,-123.1686163,1,,Macdonald St,2001,South
223,49.2680934,-123.1686163,1,,Macdonald st,2001,West
224,49.2497882,-123.1679977,1,,Macdonald St,4107,West
225,49.2425612,-123.1704188,1,,Mackenzie St,4889,West
226,49.2839228,-123.0997361,3,,Main St,101,West
227,49.2838939,-123.0999418,1,,Main St,121,West
228,49.2825431,-123.0989646,1,,Main St,222,East
229,49.2824641,-123.0998325,2,,Main St,245,West
230,49.2801694,-123.0995249,1,,Main St,506,East
231,49.2784697,-123.0995814,2,,Main St,700,East
232,49.2782153,-123.0992977,1,,Main St,708,East
233,49.2657634,-123.1004459,1,,Main St,2148,East
234,49.2657634,-123.1004459,1,,Main St,2148,East
235,49.2657634,-123.1004459,2,,Main St,2148,East
236,49.2622046,-123.1013597,1,,Main St,2543,West
237,49.2622046,-123.1013597,1,,Main St,2549,West
238,49.2618603,-123.1007576,1,,Main St,2600,East
239,49.2617261,-123.1007848,1,,Main St,2616,East
240,49.2598479,-123.1008686,1,,Main St,2828,East
241,49.2598147,-123.1008722,1,,Main St,2830,East
242,49.2591539,-123.1007927,1,,Main St,2902,East
243,49.2586056,-123.1009173,1,,Main St,2970,East
244,49.2546448,-123.100697,2,,Main St,3418,East
245,49.2544496,-123.1006505,1,,Main St,3448,East
246,49.2540119,-123.1011835,1,,Main St,3463,West
247,49.253109,-123.1011061,2,,Main St,3561,West
248,49.251916,-123.1012221,1,,Main St,3699,West
249,49.2512961,-123.1012268,1,,Main St,3757,West
250,49.2510377,-123.1012316,1,,Main St,3795,West
251,49.2484508,-123.1008973,1,,Main St,4124,East
252,49.248382,-123.1013152,1,,Main St,4129,West
253,49.2477365,-123.1007838,1,,Main St,4198,East
254,49.2473463,-123.1007201,1,,Main St,4216,East
255,49.2476257,-123.1013879,1,,Main St,4219,West
256,49.2471105,-123.1014928,1,,Main St,4301,West
257,49.2465464,-123.1015979,1,,Main St,4355,West
258,49.2455533,-123.1014822,2,,Main St,4423,West
259,49.2450281,-123.1010903,1,,Main St,4456,East
260,49.244937,-123.1015905,2,,Main St,4475,West
261,49.2438319,-123.1009637,1,,Main St,4554,East
262,49.2436237,-123.1011502,1,,Main St,4570,East
263,49.2427843,-123.1016602,1,,Main St,4673,West
264,49.2425562,-123.1011961,1,,Main St,4750,East
265,49.233362,-123.1017399,1,,Main St,5685,West
266,49.2748249,-123.1221591,1,,Mainland St,1195,North
267,49.2714027,-123.1070645,5,,Manitoba St,1605,West
268,49.2881114,-123.1242091,2,,Melville St,1205,North
269,49.2861944,-123.0598823,1,,N Templeton Drive,127,West
270,49.268574,-123.104545,2,,Ontario St,1836,East
271,49.274176,-123.1195408,1,,Pacific Boulevard,1108,South
272,49.2739312,-123.1208253,1,,Pacific Boulevard,1196,South
273,49.2737518,-123.1232805,1,,Pacific Boulevard,1267,North
274,49.2735614,-123.1224281,1,,Pacific Boulevard,1268,South
275,49.2719551,-123.1246334,3,,Pacific Boulevard,1300,South
276,49.2833642,-123.1033656,1,,Powell St,43,North
277,49.2833009,-123.0949246,1,,Powell St,415,North
278,49.2832938,-123.094095,1,,Powell St,453,North
279,49.2831841,-123.0935172,4,,Powell St,477,North
280,49.2827609,-123.092154,1,,Powell St,550,South
281,49.2828319,-123.0919338,1,,Powell St,566,South
282,49.2832926,-123.0918063,1,,Powell St,569,North
283,49.2831063,-123.0867654,2,,Powell St,807,North
284,49.2833391,-123.0762926,2,,Powell St,1315,North
285,49.2837964,-123.0695634,1,,Powell St,1728,North
286,49.2841126,-123.069509,1,,Powell St,1729,North
287,49.2642897,-123.1034312,2,,Quebec St,2323,West
288,49.2850381,-123.0955047,1,,Railway St,395,North
289,49.2827291,-123.1207375,1,,Railway St,422,South
290,49.28452,-123.0940021,1,,Railway St,460,South
291,49.2832425,-123.1134586,1,,Richards St,509,West
292,49.2788122,-123.1195993,3,,Richards St,910,South
293,49.275726,-123.1241481,1,,Richards St,1200,East
294,49.2785987,-123.1160366,2,,Robson St,298,South
295,49.2788987,-123.1164103,1,,Robson St,340,South
296,49.2795863,-123.1173752,1,,Robson St,430,South
297,49.2803236,-123.1189207,2,,Robson St,550,South
298,49.2840264,-123.1233407,2,,Robson St,1025,North
299,49.2847112,-123.1252632,4,,Robson St,1100,South
300,49.287051,-123.1290774,1,,Robson St,1300,South
301,49.2873351,-123.1287781,1,,Robson St,1323,North
302,49.2905731,-123.1344726,1,,Robson St,1716,South
303,49.2917011,-123.1355427,2,,Robson St,1817,North
304,49.2793994,-123.1204307,1,,Seymour St,900,South
305,49.2779057,-123.1234181,1,,Seymour St,1067,West
306,49.2775793,-123.1236249,4,,Seymour St,1100,West
307,49.2772308,-123.1246701,1,,Seymour St,1155,West
308,49.2768552,-123.1252236,1,,Seymour St,1199,West
309,49.2804186,-123.1048283,1,,Shanghai Alley,524,East
310,49.2808432,-123.0286789,4,,Skeena St,405,West
311,49.2751302,-123.1139316,2,,Smithe St,79,North
312,49.2751302,-123.1139316,2,,Smithe St,79,North
313,49.2796214,-123.1200237,4,,Smithe St,589,North
314,49.2798019,-123.1204229,1,,Smithe St,601,North
315,49.2832241,-123.1255321,1,,Smithe St,1000,North
316,49.2681116,-123.1665439,2,,Stephens St,2025,West
317,49.283661,-123.064357,1,,Triumph St,1946,South
318,49.2650776,-123.1758727,1,,Trutch St,2400,East
319,49.2777733,-123.0987994,1,,Union St,221,North
320,49.2778006,-123.0985914,1,,Union St,231,North
321,49.277772,-123.0979395,1,,Union St,251,North
322,49.2777505,-123.0979028,1,,Union St,255,North
323,49.2766209,-123.0754442,1,,Venables St,1420,South
324,49.2768573,-123.0752028,1,,Venables St,1457,North
325,49.2769209,-123.0751407,1,,Venables St,1461,North
326,49.2765934,-123.0726119,1,,Venables St,1530,South
327,49.2729115,-123.0655202,1,,Victoria Drive,1302,East
328,49.2395219,-123.0651666,1,,Victoria Drive,4932,East
329,49.2395854,-123.0655423,1,,Victoria Drive,4969,West
330,49.2387867,-123.065571,1,,Victoria Drive,5057,West
331,49.2339101,-123.0657156,1,,Victoria Drive,5579,West
332,49.2340896,-123.0653288,1,,Victoria Drive,5590,East
333,49.2331558,-123.0658793,1,,Victoria Drive,5661,West
334,49.2272929,-123.0659024,1,,Victoria Drive,6225,West
335,49.2257118,-123.0660246,2,,Victoria Drive,6471,West
336,49.2253672,-123.0660505,1,,Victoria Drive,6495,West
337,49.2244852,-123.0660132,1,,Victoria Drive,6579,West
338,49.224282,-123.065582,1,,Victoria Drive,6586,East
339,49.2239368,-123.0660696,1,,Victoria Drive,6647,West
340,49.2235827,-123.0659797,1,,Victoria Drive,6689,West
341,49.2208327,-123.0656968,1,,Victoria Drive,6942,East
342,49.2633682,-123.1862878,1,,W 10th Av,3712,South
343,49.2636506,-123.1869388,1,,W 10th Av,3751,North
344,49.2636506,-123.1869388,1,,W 10th Av,3751,North
345,49.2633836,-123.186895,1,,W 10th Av,3760,South
346,49.2636762,-123.1876572,1,,W 10th Av,3785,North
347,49.2636424,-123.2048863,1,,W 10th Av,4364,South
348,49.2636912,-123.2074485,1,,W 10th Av,4444,South
349,49.2636605,-123.2079568,1,,W 10th Av,4456,South
350,49.2639771,-123.2084503,1,,W 10th Av,4479,North
351,49.2639863,-123.209371,1,,W 10th Av,4501,North
352,49.2636417,-123.2101416,1,,W 10th Av,4530,South
353,49.2637172,-123.2104185,1,,W 10th Av,4538,South
354,49.2641214,-123.2099983,1,,W 10th Av,4545,North
355,49.2641214,-123.2099983,1,,W 10th Av,4545,North
356,49.2616472,-123.1391858,1,,W 11th Av,1510,South
357,49.2616509,-123.1392585,1,,W 11th Av,1520,South
358,49.2608887,-123.1534216,1,,W 12th Av,2108,South
359,49.2588147,-123.1393314,1,,W 14th Av,1510,South
360,49.257895,-123.1391959,1,,W 15th Av,1520,South
361,49.2569185,-123.1211451,1,,W 16th Av,736,South
362,49.2578712,-123.1651783,1,,W 16th Av,2611,North
363,49.270661,-123.145612,2,,W 1st Av,1800,South
364,49.2708048,-123.1474395,2,,W 1st Av,1855,North
365,49.2692516,-123.1053173,1,,W 2nd Av,29,North
366,49.2680917,-123.1115045,1,,W 2nd Av,336,South
367,49.2695395,-123.1395817,1,,W 2nd Av,1534,South
368,49.2695384,-123.1435485,1,,W 2nd Av,1720,South
369,49.2364804,-123.1561178,1,,W 39th Av,2102,South
370,49.2689913,-123.1445132,1,,W 3rd Av,1751,North
371,49.2686919,-123.1451379,1,,W 3rd Av,1780,South
372,49.2354388,-123.1560653,1,,W 40th Av,2130,South
373,49.2334625,-123.1164293,4,Oakridge-41st,W 41st Av,510,South
374,49.2347763,-123.1527087,1,,W 41st Av,2021,North
375,49.2346884,-123.1536514,1,,W 41st Av,2057,North
376,49.2343101,-123.1564244,1,,W 41st Av,2120,South
377,49.2344016,-123.1583171,1,,W 41st Av,2198,South
378,49.2347554,-123.158236,2,,W 41st Av,2225,North
379,49.2343852,-123.159211,1,,W 41st Av,2246,South
380,49.2348505,-123.1586296,1,,W 41st Av,2253,North
381,49.2344862,-123.1593285,1,,W 41st Av,2260,South
382,49.2348942,-123.159766,1,,W 41st Av,2303,North
383,49.2344827,-123.1603228,1,,W 41st Av,2326,South
384,49.2345367,-123.1623484,1,,W 41st Av,2496,South
385,49.2344715,-123.1826736,1,,W 41st Av,3516,South
386,49.2346193,-123.1837495,1,,W 41st Av,3562,South
387,49.2672663,-123.1058568,1,,W 4th Av,38,South
388,49.2676673,-123.1077767,1,,W 4th Av,149,North
389,49.2675544,-123.1087004,1,,W 4th Av,163,West
390,49.2677458,-123.1091759,1,,W 4th Av,165,West
391,49.2677285,-123.1407494,2,,W 4th Av,1590,South
392,49.2680558,-123.1406519,2,,W 4th Av,1599,North
393,49.2680753,-123.141136,1,,W 4th Av,1615,North
394,49.2681898,-123.1436312,1,,W 4th Av,1707,North
395,49.2681799,-123.1438339,1,,W 4th Av,1723,North
396,49.2683115,-123.1445962,1,,W 4th Av,1755,North
397,49.2683115,-123.1445962,1,,W 4th Av,1755,North
398,49.2682005,-123.1449036,1,,W 4th Av,1775,North
399,49.2677929,-123.1458928,1,,W 4th Av,1804,South
400,49.2682815,-123.1462231,1,,W 4th Av,1823,North
401,49.2678398,-123.146348,1,,W 4th Av,1828,South
402,49.268425,-123.1467055,1,,W 4th Av,1843,North
403,49.268425,-123.1467055,1,,W 4th Av,1843,North
404,49.2682363,-123.1483021,1,,W 4th Av,1905,North
405,49.2678425,-123.14818,2,,W 4th Av,1906,South
406,49.2682489,-123.1490825,1,,W 4th Av,1947,North
407,49.2683068,-123.1499668,1,,W 4th Av,1985,North
408,49.2679193,-123.1500197,1,,W 4th Av,1992,South
409,49.2679129,-123.1512309,1,,W 4th Av,2028,South
410,49.2678867,-123.1541699,1,,W 4th Av,2152,South
411,49.2683209,-123.1544386,1,,W 4th Av,2175,North
412,49.2684145,-123.1548368,1,,W 4th Av,2199,North
413,49.2679266,-123.15535,8,,W 4th Av,2200,South
414,49.2679457,-123.1559443,1,,W 4th Av,2228,South
415,49.268006,-123.1569265,1,,W 4th Av,2274,South
416,49.2679607,-123.1577892,3,,W 4th Av,2302,South
417,49.2679607,-123.1577892,3,,W 4th Av,2302,South
418,49.2684853,-123.1655865,1,,W 4th Av,2645,North
419,49.2682007,-123.1652762,1,,W 4th Av,2662,South
420,49.268204,-123.166196,1,,W 4th Av,2698,East
421,49.2680785,-123.167062,1,,W 4th Av,2722,South
422,49.2682391,-123.1670443,1,,W 4th Av,2724,South
423,49.2682391,-123.1670443,1,,W 4th Av,2724,South
424,49.2682529,-123.1689093,1,,W 4th Av,2828,South
425,49.2685488,-123.1698732,1,,W 4th Av,2919,North
426,49.2685437,-123.1700541,1,,W 4th Av,2929,North
427,49.2686328,-123.1783129,1,,W 4th Av,3327,North
428,49.2687497,-123.1786136,1,,W 4th Av,3337,North
429,49.2687541,-123.1823525,1,,W 4th Av,3545,North
430,49.2687541,-123.1823525,1,,W 4th Av,3545,North
431,49.2684638,-123.1833404,1,,W 4th Av,3590,South
432,49.2684734,-123.1839515,1,,W 4th Av,3608,South
433,49.2684832,-123.1849141,1,,W 4th Av,3654,South
434,49.2687506,-123.1854023,1,,W 4th Av,3689,North
435,49.2668587,-123.111927,2,,W 5th,375,North
436,49.2663295,-123.1092293,2,,W 5th Av,188,North
437,49.2663295,-123.1092293,1,,W 5th Av,188,East
438,49.2084931,-123.1378729,2,,W 70th Av,1400,South
439,49.2650009,-123.1117657,1,,W 7th Av,331,North
440,49.265429,-123.135845,1,,W 7th Av,1399,North
441,49.2655593,-123.1400898,2,,W 7th Av,1557,North
442,49.2655357,-123.1405596,1,,W 7th Av,1581,North
443,49.2637855,-123.1124134,2,,W 8th,386,South
444,49.2638215,-123.1130954,1,,W 8th,402,South
445,49.2640804,-123.1137853,1,,W 8th,457,North
446,49.2640547,-123.106585,1,,W 8th Av,77,North
447,49.2636947,-123.1134252,2,,W 8th Av,428,South
448,49.2629228,-123.1072618,1,,W Broadway,112,South
449,49.2632998,-123.1077431,1,,W Broadway,137,North
450,49.2633048,-123.1122387,1,,W Broadway,375,North
451,49.2630941,-123.116148,1,,W Broadway,532,South
452,49.2631001,-123.1192423,1,,W Broadway,632,South
453,49.2635975,-123.1213494,2,,W Broadway,777,North
454,49.2635544,-123.124491,1,,W Broadway,901,North
455,49.2633957,-123.1251765,3,,W Broadway,973,North
456,49.2636968,-123.126104,1,,W Broadway,999,North
457,49.263695,-123.1275177,1,,W Broadway,1037,North
458,49.2636018,-123.1280703,1,,W Broadway,1063,North
459,49.2633005,-123.1287327,1,,W Broadway,1088,South
460,49.2637258,-123.1367335,1,,W Broadway,1421,North
461,49.2634751,-123.1442081,1,,W Broadway,1724,South
462,49.2639621,-123.1440314,2,,W Broadway,1727,North
463,49.2638902,-123.1477396,2,,W Broadway,1885,North
464,49.2635245,-123.1540179,1,,W Broadway,2150,South
465,49.2636815,-123.154618,1,,W Broadway,2176,South
466,49.2637129,-123.1547813,1,,W Broadway,2182,South
467,49.2641249,-123.1565276,1,,W Broadway,2255,North
468,49.2640409,-123.1567891,1,,W Broadway,2283,North
469,49.2641227,-123.1570409,1,,W Broadway,2289,North
470,49.2639148,-123.1577194,2,,W Broadway,2303,North
471,49.2636006,-123.1578755,1,,W Broadway,2306,South
472,49.2641191,-123.1627153,1,,W Broadway,2505,North
473,49.2641456,-123.1630898,1,,W Broadway,2529,North
474,49.2641603,-123.1641623,1,,W Broadway,2579,North
475,49.264209,-123.1655318,1,,W Broadway,2671,North
476,49.2642118,-123.1657023,1,,W Broadway,2681,North
477,49.2638658,-123.1662374,1,,W Broadway,2696,South
478,49.26457,-123.1670453,1,,W Broadway,2733,North
479,49.2638581,-123.1678399,1,,W Broadway,2786,South
480,49.2642254,-123.1689927,1,,W Broadway,2821,North
481,49.2639303,-123.169736,1,,W Broadway,2886,South
482,49.263955,-123.170986,1,,W Broadway,2934,South
483,49.2642961,-123.1731655,1,,W Broadway,3065,North
484,49.2640001,-123.1733634,1,,W Broadway,3066,South
485,49.2644401,-123.1745278,2,,W Broadway,3123,North
486,49.2640945,-123.178444,1,,W Broadway,3328,South
487,49.2644072,-123.180761,1,,W Broadway,3431,North
488,49.2640171,-123.1810237,1,,W Broadway,3454,South
489,49.2645851,-123.181433,1,,W Broadway,3485,North
490,49.2837285,-123.1092042,1,,W Cordova St,301,North
491,49.2843153,-123.1099375,1,,W Cordova St,403,North
492,49.2859448,-123.1122271,3,Waterfront,W Cordova St,601,North
493,49.2787767,-123.1117008,3,,W Georgia St,161,East
494,49.2788904,-123.1130896,2,,W Georgia St,180,South
495,49.2818976,-123.1179129,1,,W Georgia St,650,South
496,49.2834361,-123.1192058,2,,W Georgia St,801,North
497,49.2849327,-123.1211805,1,,W Georgia St,1025,North
498,49.289671,-123.1285328,3,,W Georgia St,1445,North
499,49.2815825,-123.1055691,1,,W Hastings St,30,South
500,49.2816245,-123.1062247,4,,W Hastings St,58,South
501,49.2818171,-123.1070075,3,,W Hastings St,84,South
502,49.2820138,-123.1084954,2,,W Hastings St,134,South
503,49.282513,-123.1091688,3,,W Hastings St,163,North
504,49.282941,-123.1096791,1,,W Hastings St,207,North
505,49.282941,-123.1096791,1,,W Hastings St,207,North
506,49.2827913,-123.1099725,3,,W Hastings St,227,North
507,49.2828057,-123.1102398,1,,W Hastings St,300,South
508,49.2829025,-123.1104468,1,,W Hastings St,314,South
509,49.282898,-123.1107029,1,,W Hastings St,324,South
510,49.2831488,-123.1109657,3,,W Hastings St,400,South
511,49.2831488,-123.1109657,3,,W Hastings St,400,South
512,49.2846966,-123.1119349,2,,W Hastings St,555,North
513,49.2853229,-123.1133965,1,,W Hastings St,675,North
514,49.2859071,-123.115404,1,,W Hastings St,808,South
515,49.2863131,-123.1156472,1,,W Hastings St,848,South
516,49.2863435,-123.1159796,1,,W Hastings St,850,South
517,49.288112,-123.1191762,2,,W Hastings St,1099,North
518,49.2883306,-123.1200141,1,,W Hastings St,1111,North
519,49.2824808,-123.1110867,1,,W Pender St,309,North
520,49.2825871,-123.1111384,1,,W Pender St,319,North
521,49.2825871,-123.1111384,1,,W Pender St,319,North
522,49.282563,-123.111887,1,,W Pender St,344,South
523,49.2828274,-123.1124925,1,,W Pender St,416,South
524,49.2831764,-123.1122509,1,,W Pender St,433,North
525,49.2831764,-123.1122509,1,,W Pender St,433,North
526,49.2833523,-123.1124571,1,,W Pender St,445,North
527,49.2833523,-123.1124571,2,,W Pender St,445,North
528,49.285239,-123.1153739,2,,W Pender St,789,North
529,49.2856893,-123.1160558,1,,W Pender St,819,North
530,49.28799,-123.1214007,1,,W Pender St,1139,North
531,49.2839592,-123.1054599,1,,Water St,55,North
532,49.2838956,-123.1075462,1,,Water St,142,South
533,49.2845468,-123.1085117,1,,Water St,199,North
534,49.2842096,-123.1094381,1,,Water St,322,South
535,49.2842835,-123.109644,1,,Water St,332,South
536,49.2848666,-123.1105007,1,,Water St,375,North
537,49.2848666,-123.1105007,3,,Water St,375,North
538,49.2374959,-123.1556437,1,,West Boulevard,5389,West
539,49.2349743,-123.1557063,1,,West Boulevard,5663,West
540,49.2339996,-123.1557573,1,,West Boulevard,5765,West
541,49.2338904,-123.1557466,1,,West Boulevard,5777,West
542,49.2721881,-123.154819,1,,Yew St,1520,East
543,49.272037,-123.1551658,2,,Yew St,1555,West
544,49.2715923,-123.1478338,1,,York Av,1900,South
545,49.2635656,-123.1127251,1,,Yukon St,2450,East
546,49.263301,-123.1129305,1,,Yukon St,2490,East
547,49.2840955,-123.106071,1,,Abbott St,134,East
548,49.2814279,-123.1077303,4,,Abbott St,455,West
549,49.2806226,-123.1074548,1,,Abbott St,516,East
550,49.280222,-123.1071895,1,,Abbott St,568,East
551,49.2791718,-123.1074474,1,,Abbott St,660,East
552,49.2790622,-123.1078301,1,,Abbott St,683,West
553,49.2774031,-123.074588,1,,Adanac,1488,South
554,49.2838057,-123.1029041,2,,Alexander St,55,North
555,49.283638,-123.102348,1,,Alexander St,90,South
556,49.2837394,-123.1009732,1,,Alexander St,148,South
557,49.283951,-123.096892,2,,Alexander St,320,South
558,49.2836375,-123.0891228,3,,Alexander St,704,South
559,49.2679307,-123.1865956,3,,Alma St,2083,West
560,49.2618905,-123.1857569,1,,Alma St,2780,East
561,49.2625438,-123.1527909,1,,Arbutus St,2640,East
562,49.2615917,-123.1532297,1,,Arbutus St,2723,West
563,49.2734562,-123.1598454,1,,Balsam St,1400,East
564,49.2343702,-123.1611127,1,,Balsam St,5704,East
565,49.2801607,-123.1099135,1,,Beatty St,568,East
566,49.2789426,-123.1115667,3,,Beatty St,688,West
567,49.2768591,-123.1147877,3,,Beatty St,858,East
568,49.2767794,-123.1156014,1,,Beatty St,873,West
569,49.2767794,-123.1156014,2,,Beatty St,873,West
570,49.2773146,-123.1142669,1,,Beatty St,900,East
571,49.2758288,-123.1171714,1,,Beatty St,989,West
572,49.2907845,-123.1336896,1,,Bidwell St,777,West
573,49.2861385,-123.1406269,2,,Bidwell St,1209,West
574,49.2876106,-123.1150993,1,,Burrard St,200,West
575,49.2874624,-123.1170457,2,,Burrard St,355,West
576,49.2822067,-123.1238037,3,,Burrard St,888,East
577,49.2818276,-123.125498,1,,Burrard St,955,West
578,49.2816532,-123.1261122,1,,Burrard St,969,West
579,49.2801681,-123.1271342,2,,Burrard St,1088,East
580,49.2790565,-123.1289483,1,,Burrard St,1192,East
581,49.2782194,-123.1299373,1,,Burrard St,1262,East
582,49.2777307,-123.1308646,1,,Burrard St,1306,East
583,49.277542,-123.1311001,1,,Burrard St,1340,East
584,49.2856261,-123.1268826,1,,Bute St,808,East
585,40.585548,-122.3876371,2,,Bute St,1100,East
586,49.2840173,-123.108771,2,,Cambie St,220,East
587,49.2830808,-123.1091443,2,,Cambie St,310,East
588,49.2817386,-123.1095914,1,,Cambie St,440,East
589,49.277189,-123.1159847,1,,Cambie St,888,East
590,49.2766724,-123.1165907,4,,Cambie St,930,South
591,49.2660091,-123.1147663,1,,Cambie St,2150,East
592,49.2593444,-123.1152178,1,,Cambie St,2915,West
593,49.2590426,-123.1152373,1,,Cambie St,2963,West
594,49.2554431,-123.1153495,1,,Cambie St,3365,West
595,49.2498517,-123.1150166,1,,Cambie St,4018,East
596,49.2496732,-123.1152056,1,,Cambie St,4038,East
597,49.2263429,-123.1160385,3,Langara-49th,Cambie St,6488,East
598,49.2862333,-123.1371166,3,,Cardero St,1078,East
599,49.2827291,-123.1207375,2,,Carrall St,298,East
600,49.2349188,-123.0368403,1,,Cecil St,5487,West
601,49.2729501,-123.0690461,2,,Charles St,1716,South
602,49.2801561,-123.0775631,1,,Clark Dr,505,West
603,49.2765541,-123.0768797,1,,Clark Dr,912,East
604,49.2765541,-123.0768797,2,,Clark Dr,912,South
605,49.2774097,-123.0774063,2,,Clark Drive,823,West
606,49.2746364,-123.0775784,2,,Clark Drive,1111,West
607,49.2822562,-123.1024296,1,,Columbia St,303,West
608,49.2755421,-123.0693472,2,,Commercial Drive,1010,East
609,49.275433,-123.069353,1,,Commercial Drive,1016,East
610,49.2752632,-123.069331,1,,Commercial Drive,1034,East
611,49.2750696,-123.0699133,2,,Commercial Drive,1035,West
612,49.2746671,-123.0697297,1,,Commercial Drive,1103,West
613,49.2745282,-123.069861,1,,Commercial Drive,1111,West
614,49.2722609,-123.0692191,1,,Commercial Drive,1380,East
615,49.2710301,-123.0693618,1,,Commercial Drive,1520,East
616,49.2703598,-123.0692835,1,,Commercial Drive,1604,East
617,49.269378,-123.0694459,1,,Commercial Drive,1714,East
618,49.2692232,-123.0694179,1,,Commercial Drive,1726,East
619,49.2679697,-123.0693352,1,,Commercial Drive,1858,East
620,49.266958,-123.0693744,1,,Commercial Drive,2010,East
621,49.2660509,-123.0694337,1,,Commercial Drive,2096,East
622,49.2638567,-123.0694135,1,,Commercial Drive,2360,East
623,49.2616204,-123.0700627,1,,Commercial Drive,2575,West
624,49.2612192,-123.0699835,1,,Commercial Drive,2601,West
625,49.2602898,-123.0701045,1,,Commercial Drive,2703,West
626,49.2584759,-123.0700752,1,,Commercial Drive,2915,West
627,49.2829271,-123.1068858,1,,Cordova St,100,East
628,49.2827291,-123.1207375,1,,Cornwall Av,1935,North
629,49.2827291,-123.1207375,2,,Cornwall Av,1937,North
630,49.2827291,-123.1207375,1,,Cornwall Av,1995,North
631,49.2827291,-123.1207375,2,,Cornwall Av,2200,South
632,49.2710575,-123.1477078,1,,Cypress St,1660,East
633,49.2730826,-123.1204516,3,,Davie St,110,South
634,49.2744443,-123.1214637,6,Yaletown-Roundhouse,Davie St,297,North
635,49.2767332,-123.1252699,1,,Davie St,605,North
636,49.2768752,-123.1255626,1,,Davie St,671,North
637,49.2770714,-123.1257152,2,,Davie St,677,North
638,49.2852343,-123.1386483,1,,Davie St,1600,South
639,49.2854962,-123.1393442,2,,Davie St,1650,South
640,49.2861885,-123.1404854,1,,Davie St,1702,South
641,49.2872573,-123.1412277,1,,Davie St,1789,North
642,49.2916735,-123.1354479,3,,Denman St,785,West
643,49.2883031,-123.1406828,1,,Denman St,1105,West
644,49.2876016,-123.1411034,1,,Denman St,1168,East
645,49.2874519,-123.1412993,1,,Denman St,1180,East
646,49.286879,-123.141935,1,,Denman St,1210,East
647,49.2577491,-123.1853357,1,,Dunbar St,3211,West
648,49.2576665,-123.1846888,2,,Dunbar St,3228,East
649,49.2559248,-123.1848351,1,,Dunbar St,3456,East
650,49.2488816,-123.1854742,1,,Dunbar St,4205,West
651,49.2486564,-123.1849786,1,,Dunbar St,4236,East
652,49.2479435,-123.1850534,1,,Dunbar St,4306,East
653,49.2475004,-123.185025,1,,Dunbar St,4336,East
654,49.2474605,-123.1855698,1,,Dunbar St,4355,West
655,49.2467934,-123.1848907,1,,Dunbar St,4432,East
656,49.2469768,-123.1854133,1,,Dunbar St,4445,West
657,49.246735,-123.1850391,1,,Dunbar St,4446,East
658,49.2464982,-123.1847923,1,,Dunbar St,4474,East
659,49.2463055,-123.1854199,1,,Dunbar St,4497,West
660,49.281981,-123.0951257,2,,Dunlevy Av,304,North
661,49.2828958,-123.1150214,1,,Dunsmuir St,579,North
662,49.2573,-123.0904127,1,,E 15th Av,635,North
663,49.2573566,-123.0908627,1,,E 15th St,617,North
664,49.2568494,-123.100502,1,,E 16th Av,211,North
665,49.255824,-123.1017363,1,,E 17th Av,197,North
666,49.269467,-123.1018397,1,,E 2nd Av,127,North
667,49.2684937,-123.1025167,1,,E 3rd,107,North
668,49.2679671,-123.1017065,1,,E 3rd Av,146,South
669,49.2683394,-123.1012927,3,,E 3rd Av,173,North
670,49.267229,-123.104256,1,,E 4th Av,20,South
671,49.267164,-123.099049,1,,E 4th Av,272,South
672,49.2663368,-123.1034555,1,,E 5th Av,56,South
673,49.2661946,-123.1031955,1,,E 5th Av,60,South
674,49.2648766,-123.1031969,1,,E 7th Av,77,North
675,49.2648063,-123.0994194,2,,E 7th Av,255,North
676,49.26353,-123.09862,1,,E 8th Av,303,North
677,49.2629737,-123.0716798,1,,E 8th Av,1600,North
678,49.2623436,-123.0906434,2,,E Broadway,612,South
679,49.2623148,-123.0869757,1,,E Broadway,800,South
680,49.2625842,-123.0823976,2,,E Broadway,1037,North
681,49.2621439,-123.0743963,1,,E Broadway,1458,South
682,49.2829687,-123.1060683,1,,E Cordova St,63,North
683,49.2830148,-123.1065286,1,,E Cordova St,93,North
684,49.2788062,-123.0982201,1,,E Georgia St,239,North
685,49.2788062,-123.0982201,1,,E Georgia St,239,North
686,49.2787186,-123.0932563,1,,E Georgia St,501,North
687,49.2811577,-123.0979364,1,,E Hastings St,288,South
688,49.2814583,-123.0951057,1,,E Hastings St,403,North
689,49.2814852,-123.0942172,1,,E Hastings St,449,North
690,49.2810114,-123.0908355,1,,E Hastings St,638,South
691,49.2852235,-123.1133413,1,,E Hastings St,649,South
692,49.2813347,-123.0902822,1,,E Hastings St,651,South
693,49.2814501,-123.0893284,1,,E Hastings St,701,North
694,49.2812379,-123.0862202,1,,E Hastings St,843,North
695,49.2889103,-123.1236779,2,,E Hastings St,1222,South
696,49.2814968,-123.0745067,2,,E Hastings St,1489,West
697,49.2810018,-123.054249,1,,E Hastings St,2510,South
698,49.2809915,-123.0514925,1,,E Hastings St,2614,South
699,49.2812754,-123.0507443,1,,E Hastings St,2647,North
700,49.2812657,-123.0280715,1,,E Hastings St,3501,North
701,49.2809761,-123.0269839,1,,E Hastings St,3550,South
702,49.2813566,-123.0268231,1,,E Hastings St,3561,North
703,49.2809859,-123.0248216,1,,E Hastings St,3622,South
704,49.2814284,-123.023953,2,,E Hastings St,3683,North
705,49.2811779,-123.1090244,1,,E Pender St,142,South
706,49.2802081,-123.0786357,2,,E Pender St,1220,South
707,49.2342537,-123.1548735,1,,East Boulevard,5720,East
708,49.2694391,-123.1409639,1,,Fir St,1809,West
709,49.2695545,-123.1406519,5,,Fir St,1810,East
710,49.279748,-123.0784286,1,,Frances St,1223,North
711,49.2822215,-123.0810083,1,,Franklin St,1104,South
712,49.2821367,-123.0807847,1,,Franklin St,1112,South
713,49.2562288,-123.0901317,1,,Fraser St,3207,South
714,49.2556914,-123.0901439,3,,Fraser St,3245,West
715,49.2542018,-123.0902412,1,,Fraser St,3455,West
716,49.2480483,-123.0903474,1,,Fraser St,4153,West
717,49.2471648,-123.089951,1,,Fraser St,4238,East
718,49.2470174,-123.0903232,1,,Fraser St,4259,West
719,49.2457428,-123.0900292,1,,Fraser St,4386,East
720,49.2437295,-123.0900877,2,,Fraser St,4590,East
721,49.2315718,-123.0902988,2,,Fraser St,5838,East
722,49.2302674,-123.0910084,1,,Fraser St,5989,West
723,49.2299962,-123.0908133,1,,Fraser St,6007,West
724,49.2290114,-123.0904909,1,,Fraser St,6108,East
725,49.2274298,-123.090415,1,,Fraser St,6294,East
726,49.2272459,-123.0903603,1,,Fraser St,6330,East
727,49.2253578,-123.090363,1,,Fraser St,6504,East
728,49.2829872,-123.0980861,1,,Gore Av,189,West
729,49.2583349,-123.0459268,2,,Grandview Hwy,2825,North
730,49.2840097,-123.1152938,1,,Granville St,540,East
731,49.2843863,-123.1158797,1,,Granville St,543,West
732,49.2813947,-123.1195374,1,,Granville St,798,East
733,49.2800282,-123.122264,1,,Granville St,929,West
734,49.2791406,-123.1237771,1,,Granville St,1025,West
735,49.2778876,-123.1257331,2,,Granville St,1149,West
736,49.2767647,-123.1262584,4,,Granville St,1208,East
737,49.2765429,-123.1274694,1,,Granville St,1265,West
738,49.2654959,-123.1387989,1,,Granville St,2247,West
739,49.2647901,-123.1387282,1,,Granville St,2335,West
740,49.2628536,-123.1384023,1,,Granville St,2590,East
741,49.262401,-123.1382603,1,,Granville St,2600,East
742,49.262525,-123.1389307,1,,Granville St,2601,West
743,49.2624112,-123.1388578,1,,Granville St,2609,West
744,49.2622435,-123.138446,1,,Granville St,2658,East
745,49.261346,-123.1382117,1,,Granville St,2750,East
746,49.2586624,-123.1384654,1,,Granville St,3010,East
747,49.258568,-123.1385172,1,,Granville St,3014,East
748,49.2583101,-123.1389573,1,,Granville St,3061,West
749,49.21334,-123.1406244,1,,Granville St,7985,West
750,49.2115698,-123.1407048,1,,Granville St,8289,West
751,49.2111805,-123.1408436,1,,Granville St,8333,West
752,49.2095758,-123.1400908,1,,Granville St,8490,East
753,49.2077709,-123.1403249,1,,Granville St,8662,East
754,49.2777744,-123.1085205,1,,Griffiths Way,800,East
755,49.2814944,-123.1121403,1,,Hamilton St,555,North
756,49.2781035,-123.1172652,3,,Hamilton St,877,East
757,49.2780198,-123.1166336,1,,Hamilton St,878,East
758,49.2767324,-123.1198074,4,,Hamilton St,1020,South
759,49.275907,-123.1206478,1,,Hamilton St,1090,South
760,49.2780075,-123.1315048,2,,Harwood St,1009,North
761,49.2769321,-123.1226393,2,,Helmcken St,500,South
762,49.2772251,-123.1231174,1,,Helmcken St,540,South
763,49.2775678,-123.1230747,1,,Helmcken St,575,North
764,49.2778627,-123.1240727,2,,Helmcken St,600,South
765,49.2837193,-123.1101968,1,,Homer St,318,East
766,49.2789021,-123.1182268,2,,Homer St,855,North
767,49.2770408,-123.1200256,1,,Homer St,1006,East
768,49.276549,-123.1208726,1,,Homer St,1062,East
769,49.2762806,-123.1211701,2,,Homer St,1090,East
770,49.2765292,-123.1216986,1,,Homer St,1095,West
771,49.2763534,-123.1214367,1,,Homer St,1096,East
772,49.2756056,-123.122133,1,,Homer St,1144,East
773,49.2753333,-123.1226177,1,,Homer St,1180,East
774,49.2741239,-123.1244537,1,,Homer St,1290,East
775,49.2767838,-123.1309465,2,,Hornby,1359,West
776,49.2862466,-123.1163437,6,,Hornby St,400,
777,49.2825685,-123.1223991,1,,Hornby St,811,West
778,49.2824313,-123.1225062,1,,Hornby St,815,West
779,49.2810817,-123.1244092,1,,Hornby St,951,West
780,49.2796249,-123.1260697,1,,Hornby St,1082,East
781,49.2865079,-123.1142609,1,,Howe St,325,West
782,49.2853076,-123.115529,1,,Howe St,466,East
783,49.2853076,-123.115529,1,,Howe St,466,East
784,49.2847606,-123.11703,1,,Howe St,555,West
785,49.2845315,-123.1175059,1,,Howe St,595,West
786,49.2842678,-123.1174393,4,,Howe St,600,East
787,49.2744707,-123.1325081,1,,Howe St,1811,West
788,49.238488,-123.0315774,1,,Joyce St,5082,East
789,49.2378503,-123.0308365,3,Joyce-Collingwood,Joyce St,5099,North
790,49.2797638,-123.1006704,1,,Keefer St,145,North
791,49.2624335,-123.099348,1,,Kingsway,188,West
792,49.2604644,-123.0969008,4,,Kingsway,355,North
793,49.257979,-123.093837,1,,Kingsway,488,South
794,49.2574826,-123.092908,1,,Kingsway,560,South
795,49.2569409,-123.0907494,1,,Kingsway,650,South
796,49.2549716,-123.0865129,1,,Kingsway,856,South
797,49.2529462,-123.0825948,1,,Kingsway,1072,South
798,49.2534996,-123.0821913,2,,Kingsway,1097,North
799,49.2519633,-123.0801494,1,,Kingsway,1196,South
800,49.2513702,-123.0792651,1,,Kingsway,1238,South
801,49.2512958,-123.0790422,1,,Kingsway,1240,South
802,49.2518318,-123.0789826,1,,Kingsway,1243,North
803,49.2511522,-123.0785071,1,,Kingsway,1284,South
804,49.2513841,-123.0776444,2,,Kingsway,1303,North
805,49.2504025,-123.0770456,1,,Kingsway,1356,South
806,49.2504318,-123.0763251,1,,Kingsway,1391,North
807,49.2501359,-123.0754256,1,,Kingsway,1427,North
808,49.2493741,-123.0747953,1,,Kingsway,1432,South
809,49.2464818,-123.0685771,1,,Kingsway,1760,South
810,49.231954,-123.0273921,1,,Kingsway,3546,South
811,49.2323969,-123.0255163,1,,Kingsway,3617,North
812,49.2507983,-123.1680894,1,,Macdonald St,4017,West
813,49.2506063,-123.1680174,1,,Macdonald St,4027,West
814,49.2504822,-123.1679972,1,,Macdonald St,4055,West
815,49.2496912,-123.1680612,1,,Macdonald St,4109,West
816,49.2425374,-123.1700785,1,,Mackenzie St,4894,East
817,49.2833306,-123.0991402,2,,Main St,180,East
818,49.2824261,-123.0999477,1,,Main St,247,West
819,49.2809398,-123.0993214,2,,Main St,416,East
820,49.2765047,-123.1001039,2,,Main St,917,West
821,49.2765047,-123.1001039,2,,Main St,917,West
822,49.276219,-123.0996947,2,,Main St,928,East
823,49.2676922,-123.1012479,2,,Main St,1965,West
824,49.2668893,-123.1012246,2,,Main St,2015,West
825,49.2656322,-123.1006577,3,,Main St,2152,East
826,49.2651322,-123.1006225,1,,Main St,2218,East
827,49.2635753,-123.1011671,1,,Main St,2403,West
828,49.2632291,-123.1012142,1,,Main St,2429,West
829,49.2622591,-123.1013093,1,,Main St,2541,West
830,49.2616288,-123.1014236,1,,Main St,2655,West
831,49.2599181,-123.1008449,1,,Main St,2818,East
832,49.258598,-123.1008378,1,,Main St,2980,East
833,49.2582219,-123.1007835,1,,Main St,3010,East
834,49.2579758,-123.1014334,2,,Main St,3045,West
835,49.2577372,-123.1008267,1,,Main St,3080,East
836,49.2540119,-123.1011835,1,,Main St,3463,West
837,49.2529165,-123.1011872,1,,Main St,3585,West
838,49.2526173,-123.1011367,2,,Main St,3603,West
839,49.2505024,-123.1007793,1,,Main St,3878,East
840,49.2499422,-123.1012325,2,,Main St,3941,West
841,49.2498714,-123.100783,1,,Main St,3950,East
842,49.2479573,-123.1007701,1,,Main St,4172,West
843,49.2458467,-123.1014995,1,,Main St,4401,West
844,49.2453529,-123.101476,1,,Main St,4433,West
845,49.2448938,-123.1009939,1,,Main St,4464,East
846,49.2442718,-123.1010766,1,,Main St,4510,East
847,49.2440755,-123.10157,1,,Main St,4531,West
848,49.2437177,-123.1016519,2,,Main St,4575,West
849,49.2429075,-123.1015796,1,,Main St,4645,West
850,49.2415282,-123.1017144,2,,Main St,4825,West
851,49.2409392,-123.101774,1,,Main St,4871,West
852,49.240957,-123.1016735,1,,Main St,4873,West
853,49.2766541,-123.1185907,1,,Mainland St,910,South
854,49.2761497,-123.1194042,3,,Mainland St,1020,South
855,49.2675473,-123.106822,1,,Manitoba St,1945,West
856,49.2723364,-123.120256,1,,Marinaside Crescent,1200,South
857,49.2722818,-123.1201794,4,,Marinaside Crescent,1228,South
858,49.2725035,-123.0561464,1,,Nanaimo St,1386,East
859,49.2724859,-123.0565934,1,,Nanaimo St,1390,East
860,49.2568004,-123.1269288,1,,Oak St,3244,East
861,49.2685225,-123.1049071,2,,Ontario St,1863,West
862,49.2741333,-123.1202816,1,,Pacific Boulevard,1156,South
863,49.2741333,-123.1202816,1,,Pacific Boulevard,1156,South
864,49.2746107,-123.1205567,1,,Pacific Boulevard,1165,North
865,49.274339,-123.1211785,2,,Pacific Boulevard,1195,North
866,49.2741639,-123.1221887,1,,Pacific Boulevard,1205,North
867,49.2741639,-123.1221887,1,,Pacific Boulevard,1205,North
868,49.2738894,-123.1228221,1,,Pacific Boulevard,1251,North
869,49.2738894,-123.1228221,1,,Pacific Boulevard,1251,North
870,49.2735614,-123.1224281,1,,Pacific Boulevard,1268,South
871,49.2736784,-123.1235605,1,,Pacific Boulevard,1279,North
872,49.2733999,-123.1229262,1,,Pacific Boulevard,1282,South
873,49.2719551,-123.1246334,1,,Pacific Boulevard,1300,South
874,49.2721915,-123.1854463,2,,Point Grey Rd,3700,North
875,49.2831758,-123.1032851,1,,Powell St,40,South
876,49.2830274,-123.0962677,2,,Powell St,362,South
877,49.2832067,-123.0948039,1,,Powell St,429,North
878,49.2827291,-123.1207375,1,,Powell St,451,North
879,49.2829438,-123.0924426,1,,Powell St,528,South
880,49.2832926,-123.0918063,1,,Powell St,569,North
881,49.282922,-123.0916825,1,,Powell St,580,South
882,49.2827108,-123.0910685,1,,Powell St,606,South
883,49.2827108,-123.0910685,2,,Powell St,606,South
884,49.2829141,-123.0908374,1,,Powell St,626,South
885,49.2829221,-123.0907363,1,,Powell St,636,South
886,49.283128,-123.08905,2,,Powell St,707,North
887,49.2833285,-123.075884,3,,Powell St,1357,North
888,49.2835583,-123.0751493,2,,Powell St,1435,North
889,49.2836196,-123.0746627,1,,Powell St,1445,North
890,49.2834274,-123.0742629,2,,Powell St,1449,North
891,49.2604058,-123.0966757,3,,Prince Edward St,2755,West
892,49.2847251,-123.0967432,2,,Railway,343,North
893,49.284674,-123.0945581,2,,Railway St,430,South
894,49.28452,-123.0940021,1,,Railway St,460,South
895,49.2849388,-123.0927568,1,,Railway St,505,North
896,49.2831088,-123.1133068,2,,Richards St,500,East
897,49.2828367,-123.1141779,1,,Richards St,555,West
898,49.2794572,-123.1172076,1,,Robson St,410,South
899,49.2798043,-123.1170552,2,,Robson St,433,North
900,49.2797553,-123.1178849,1,,Robson St,480,South
901,49.2801452,-123.1182179,1,,Robson St,516,South
902,49.2807755,-123.1193632,2,,Robson St,608,South
903,49.2852966,-123.1262109,1,,Robson St,1150,South
904,49.2856892,-123.1268919,1,,Robson St,1182,South
905,49.2907338,-123.1349773,1,,Robson St,1766,South
906,49.2914032,-123.1349407,1,,Robson St,1779,North
907,49.2912414,-123.1354821,1,,Robson St,1800,South
908,49.2833851,-123.1153365,3,,Seymour St,555,West
909,49.2776461,-123.123152,2,,Seymour St,1082,West
910,49.2776194,-123.1232588,3,,Seymour St,1092,West
911,49.277062,-123.124918,2,,Seymour St,1181,West
912,49.276527,-123.115207,1,,Smithe St,99,North
913,49.276527,-123.115207,1,,Smithe St,99,North
914,49.2686256,-123.1182459,1,,Stamps Landing,600,South
915,49.2870593,-123.1214756,1,,Thurlow St,535,West
916,49.2839862,-123.1254719,1,,Thurlow St,842,East
917,49.2643131,-123.1645263,2,,Trafalgar St,2480,East
918,49.277772,-123.0979395,1,,Union St,251,North
919,49.2773828,-123.0918876,1,,Union St,598,South
920,49.2769487,-123.074068,1,,Venables St,1503,North
921,49.2767667,-123.070614,1,,Venables St,1697,North
922,49.239075,-123.0650184,1,,Victoria Drive,4990,East
923,49.2388968,-123.0655656,1,,Victoria Drive,5037,West
924,49.2386372,-123.0651596,1,,Victoria Drive,5038,East
925,49.238338,-123.0650596,1,,Victoria Drive,5076,East
926,49.2379514,-123.0652084,1,,Victoria Drive,5124,East
927,49.2371805,-123.0656292,1,,Victoria Drive,5239,West
928,49.2352448,-123.0652303,1,,Victoria Drive,5470,East
929,49.2316214,-123.0659799,1,,Victoria Drive,5807,West
930,49.2265811,-123.0653478,1,,Victoria Drive,6370,East
931,49.225528,-123.0653392,1,,Victoria Drive,6470,East
932,49.221122,-123.0653329,1,,Victoria Drive,6904,East
933,49.2633597,-123.1865089,1,,W 10th Av,3730,South
934,49.2632334,-123.1867123,1,,W 10th Av,3742,South
935,49.2633846,-123.1868385,1,,W 10th Av,3754,South
936,49.2633802,-123.187414,1,,W 10th Av,3788,South
937,49.2635993,-123.2038587,1,,W 10th Av,4326,South
938,49.2639499,-123.2043263,1,,W 10th Av,4343,North
939,49.2636317,-123.2048202,1,,W 10th Av,4358,South
940,49.2636466,-123.2051021,1,,W 10th Av,4370,South
941,49.2639075,-123.2051403,1,,W 10th Av,4375,North
942,49.263897,-123.2056104,1,,W 10th Av,4387,North
943,49.2639001,-123.2059181,1,,W 10th Av,4397,North
944,49.2639429,-123.2063164,1,,W 10th Av,4401,North
945,49.2635833,-123.2069036,1,,W 10th Av,4426,South
946,49.2636512,-123.2071521,1,,W 10th Av,4434,South
947,49.2639452,-123.2073412,1,,W 10th Av,4441,North
948,49.2640624,-123.2076578,1,,W 10th Av,4449,North
949,49.2639226,-123.2078443,1,,W 10th Av,4455,North
950,49.2640375,-123.2079231,1,,W 10th Av,4459,North
951,49.2639863,-123.209371,1,,W 10th Av,4501,North
952,49.2636302,-123.2093872,1,,W 10th Av,4502,South
953,49.2637172,-123.2104185,1,,W 10th Av,4538,South
954,49.2641037,-123.2117292,1,,W 10th Av,4597,North
955,49.2604583,-123.1366234,1,,W 12th Av,1440,South
956,49.26091,-123.1391054,3,,W 12th Av,1507,North
957,49.2569247,-123.1212866,1,,W 16th Av,758,South
958,49.2572845,-123.1528464,1,,W 16th Av,2100,South
959,49.2579638,-123.1658297,1,,W 16th Av,2627,North
960,49.2578866,-123.1760389,1,,W 16th Av,3195,North
961,49.2577797,-123.189903,1,,W 16th Av,3870,South
962,49.2575896,-123.1859518,1,,W 17th Av,3637,North
963,49.2701183,-123.1069373,1,,W 1st Av,106,South
964,49.2708261,-123.1467714,1,,W 1st Av,1809,North
965,49.2704892,-123.1477071,1,,W 1st Av,1898,South
966,49.2705988,-123.1480368,1,,W 1st Av,1900,South
967,49.2705988,-123.1480368,5,,W 1st Av,1900,South
968,49.2707743,-123.1526878,1,,W 1st Av,2100,South
969,49.2499621,-123.1157681,1,,W 24th Av,500,North
970,49.2691228,-123.1061923,2,,W 2nd Av,52,South
971,49.2698875,-123.1379948,1,,W 2nd Av,1505,North
972,49.2698231,-123.1479067,1,,W 2nd Av,1900,South
973,49.2680492,-123.105992,1,,W 3rd Av,60,South
974,49.2681749,-123.1071448,1,,W 3rd Av,124,South
975,49.2690848,-123.143577,2,,W 3rd Av,1701,North
976,49.2357109,-123.1558729,1,,W 40th Av,2107,North
977,49.2343073,-123.1588336,1,,W 41st Av,2208,South
978,49.2347685,-123.1590355,1,,W 41st Av,2267,North
979,49.2345002,-123.1824893,1,,W 41st Av,3510,South
980,49.2346106,-123.1838801,1,,W 41st Av,3568,South
981,49.2678178,-123.1496337,1,,W 4th Av,1972,South
982,49.2678627,-123.1508704,3,,W 4th Av,2010,South
983,49.268392,-123.1510201,1,,W 4th Av,2023,North
984,49.2682787,-123.1513021,1,,W 4th Av,2033,North
985,49.2682155,-123.1518528,2,,W 4th Av,2061,North
986,49.2680365,-123.1536481,2,,W 4th Av,2136,South
987,49.2678867,-123.1541699,1,,W 4th Av,2152,South
988,49.2679528,-123.1546845,2,,W 4th Av,2198,South
989,49.268035,-123.155554,1,,W 4th Av,2206,South
990,49.2679882,-123.1567068,1,,W 4th Av,2270,South
991,49.2680165,-123.158373,1,,W 4th Av,2340,South
992,49.2680222,-123.1588711,1,,W 4th Av,2356,South
993,49.26803,-123.1590189,1,,W 4th Av,2360,South
994,49.2684467,-123.1650457,1,,W 4th Av,2625,North
995,49.2682007,-123.1652762,1,,W 4th Av,2662,South
996,49.2681504,-123.1657012,1,,W 4th Av,2682,South
997,49.268532,-123.1659231,1,,W 4th Av,2695,North
998,49.2682231,-123.1665289,1,,W 4th Av,2702,South
999,49.2684938,-123.1664927,2,,W 4th Av,2705,North
1000,49.2686054,-123.1669056,2,,W 4th Av,2737,North
1001,49.2685127,-123.1672765,3,,W 4th Av,2745,North
1002,49.2682245,-123.1683678,1,,W 4th Av,2802,South
1003,49.2685946,-123.1690817,1,,W 4th Av,2835,North
1004,49.2685773,-123.1699084,1,,W 4th Av,2947,North
1005,49.2682795,-123.1713562,1,,W 4th Av,2952,South
1006,49.2683013,-123.1715524,1,,W 4th Av,2958,South
1007,49.2686552,-123.1708359,2,,W 4th Av,2959,North
1008,49.2686299,-123.1780008,1,,W 4th Av,3303,North
1009,49.2684036,-123.1819798,1,,W 4th Av,3502,South
1010,49.2684036,-123.1819798,1,,W 4th Av,3502,South
1011,49.26828,-123.1822227,1,,W 4th Av,3512,South
1012,49.2687541,-123.1823525,1,,W 4th Av,3525,North
1013,49.2687541,-123.1823525,2,,W 4th Av,3525,North
1014,49.2684506,-123.1830726,1,,W 4th Av,3570,South
1015,49.2684073,-123.1847995,1,,W 4th Av,3650,South
1016,49.2687301,-123.18487,1,,W 4th Av,3661,North
1017,49.2662038,-123.1054174,1,,W 5th Ave,28,South
1018,49.265546,-123.1097187,1,,W 6th,204,South
1019,49.2654338,-123.1071857,1,,W 6th Av,112,South
1020,49.2654623,-123.1091508,1,,W 6th Av,196,South
1021,49.2657624,-123.1091641,1,,W 6th Av,199,North
1022,49.264487,-123.1045999,1,,W 7th Av,4,South
1023,49.2648374,-123.1065558,1,,W 7th Av,75,North
1024,49.2645467,-123.1124848,3,,W 7th Av,368,South
1025,49.2640252,-123.1058379,3,,W 8th Av,33,North
1026,49.2636628,-123.1083393,1,,W 8th Av,138,South
1027,49.2635486,-123.1100707,1,,W 8th Av,224,South
1028,49.2648219,-123.1395793,2,,W 8th Av,1525,North
1029,49.264858,-123.1448248,3,,W 8th Av,1765,North
1030,49.2641048,-123.1053154,4,,W 8th Ave,15,North
1031,49.263634,-123.105949,1,,W 8th Ave,42,South
1032,49.2632238,-123.1080553,1,,W Broadway,147,North
1033,49.2633166,-123.1091373,1,,W Broadway,195,North
1034,49.2629877,-123.1102379,1,,W Broadway,230,South
1035,49.2628475,-123.1145173,11,Broadway-City Hall,W Broadway,496,South
1036,49.2631423,-123.1196232,1,,W Broadway,686,South
1037,49.2634756,-123.1196689,1,,W Broadway,695,North
1038,49.2632864,-123.1275968,1,,W Broadway,1030,South
1039,49.2632429,-123.1297449,1,,W Broadway,1128,South
1040,49.2637427,-123.1326009,1,,W Broadway,1245,North
1041,49.2637427,-123.1326009,1,,W Broadway,1245,North
1042,49.2638715,-123.1404594,2,,W Broadway,1595,North
1043,49.2638793,-123.14468,2,,W Broadway,1755,North
1044,49.2638902,-123.1477396,1,,W Broadway,1885,North
1045,49.263605,-123.1483427,1,,W Broadway,1900,South
1046,49.2635615,-123.153939,2,,W Broadway,2156,South
1047,49.264061,-123.1561715,1,,W Broadway,2225,North
1048,49.2636345,-123.1579133,2,,W Broadway,2300,South
1049,49.2641191,-123.1627153,1,,W Broadway,2505,North
1050,49.2641191,-123.1627153,1,,W Broadway,2505,North
1051,49.2641852,-123.1642932,1,,W Broadway,2581,North
1052,49.2638609,-123.1659229,1,,W Broadway,2684,South
1053,49.2641821,-123.166308,1,,W Broadway,2699,North
1054,49.2639402,-123.1678526,1,,W Broadway,2790,South
1055,49.2642183,-123.1692677,1,,W Broadway,2837,North
1056,49.2638612,-123.1694447,1,,W Broadway,2868,South
1057,49.2638612,-123.1694447,1,,W Broadway,2868,South
1058,49.2638023,-123.1702836,1,,W Broadway,2902,South
1059,49.2642949,-123.1714631,1,,W Broadway,2951,West
1060,49.2643887,-123.1726934,2,,W Broadway,3035,North
1061,49.264031,-123.1729093,1,,W Broadway,3036,South
1062,49.2640314,-123.1729613,1,,W Broadway,3038,South
1063,49.2643598,-123.1728514,1,,W Broadway,3045,North
1064,49.2642974,-123.173551,1,,W Broadway,3083,North
1065,49.2642974,-123.173551,2,,W Broadway,3083,East
1066,49.2643621,-123.1736004,1,,W Broadway,3091,North
1067,49.26405,-123.1747197,1,,W Broadway,3124,South
1068,49.2639332,-123.1747212,1,,W Broadway,3126,South
1069,49.264304,-123.1747932,1,,W Broadway,3135,North
1070,49.264369,-123.1766721,1,,W Broadway,3235,North
1071,49.2643752,-123.177387,1,,W Broadway,3287,North
1072,49.2639812,-123.1775373,1,,W Broadway,3298,South
1073,49.2640619,-123.1782181,1,,W Broadway,3310,South
1074,49.2643831,-123.1789243,1,,W Broadway,3349,North
1075,49.2641441,-123.180315,1,,W Broadway,3422,South
1076,49.2823405,-123.1045143,5,,W Cordova St,2,South
1077,49.283878,-123.1093842,1,,W Cordova St,309,West
1078,49.2835818,-123.1097062,2,,W Cordova St,314,South
1079,49.2843153,-123.1099375,2,,W Cordova St,403,North
1080,49.2859448,-123.1122271,1,,W Cordova St,601,North
1081,49.288456,-123.1205233,1,,W Cordova St,1100,South
1082,49.2818976,-123.1179129,1,,W Georgia St,650,South
1083,49.2824461,-123.1185852,8,Vancouver City Centre,W Georgia St,702,South
1084,49.2838044,-123.1195512,2,,W Georgia St,885,North
1085,49.2820917,-123.1059682,1,,W Hastings St,43,North
1086,49.2819623,-123.107571,1,,W Hastings St,106,South
1087,49.2818183,-123.1077943,1,,W Hastings St,112,South
1088,49.2820681,-123.1082228,1,,W Hastings St,126,South
1089,49.282513,-123.1091688,4,,W Hastings St,163,North
1090,49.2822228,-123.1094417,2,,W Hastings St,198,South
1091,49.2822228,-123.1094417,2,,W Hastings St,198,South
1092,49.2827874,-123.1099664,1,,W Hastings St,219,North
1093,49.2827913,-123.1099725,5,,W Hastings St,227,North
1094,49.2829025,-123.1104468,1,,W Hastings St,314,South
1095,49.283305,-123.1102455,1,,W Hastings St,337,North
1096,49.2839597,-123.1114839,1,,W Hastings St,473,North
1097,49.2839597,-123.1114839,1,,W Hastings St,473,North
1098,49.2838411,-123.1119356,1,,W Hastings St,492,South
1099,49.2845116,-123.1116016,2,,W Hastings St,515,North
1100,49.2846966,-123.1119349,2,,W Hastings St,555,North
1101,49.2849766,-123.1130191,2,,W Hastings St,601,North
1102,49.284789,-123.113677,1,,W Hastings St,602,South
1103,49.2852022,-123.1129049,2,,W Hastings St,609,North
1104,49.2859071,-123.115404,1,,W Hastings St,808,South
1105,49.2877332,-123.1182842,2,,W Hastings St,1055,North
1106,49.2887693,-123.1216984,2,,W Hastings St,1177,North
1107,49.2887693,-123.1216984,2,,W Hastings St,1177,North
1108,49.2810194,-123.1063855,2,,W Pender St,33,North
1109,49.2811401,-123.1067625,1,,W Pender St,59,North
1110,49.2811401,-123.1067625,1,,W Pender St,59,North
1111,49.2812775,-123.1072245,1,,W Pender St,99,North
1112,49.2824663,-123.1117248,1,,W Pender St,338,South
1113,49.2843906,-123.1138978,1,,W Pender St,605,North
1114,49.284336,-123.114162,1,,W Pender St,617,North
1115,49.2857457,-123.1163522,1,,W Pender St,829,North
1116,49.2827284,-123.112309,1,,W Pender St,402,South
1117,49.2837474,-123.1044027,3,,Water St,3,North
1118,49.2837978,-123.1047023,1,,Water St,19,North
1119,49.2838507,-123.1056308,1,,Water St,65,North
1120,49.2841194,-123.1090782,2,,Water St,302,West
1121,49.2368912,-123.1556843,1,,West Boulevard,5435,West
1122,49.2349874,-123.1557029,1,,West Boulevard,5665,West
1123,49.2301714,-123.1558942,1,,West Boulevard,6191,West
1124,49.272453,-123.1547367,1,,Yew St,1500,East
1125,49.2721881,-123.154819,1,,Yew St,1520,East
1126,49.2349581,-123.1580051,1,,Yew St,5687,West
1127,49.2715615,-123.1464166,1,,York Av,1800,North
1128,49.2715543,-123.1548508,2,,York Av,2190,South
1129,49.2717882,-123.155245,2,,York Av,2201,North
1130,49.2714922,-123.1554194,1,,York Av,2204,South
1131,49.2636617,-123.1131009,2,,Yukon St,2459,West
1132,49.2893248,-123.1318544,1,,Robson St,1553,North
1133,49.2910565,-123.1344748,1,,Robson St,1741,North
1134,49.2914144,-123.13502,2,,Robson St,1785,North
1135,49.2779057,-123.1234181,1,,Seymour St,1067,West
1136,49.2772121,-123.1239003,3,,Seymour St,1107,West
1137,49.2774203,-123.1167446,2,,Smithe St,225,North
1138,49.2782735,-123.1179254,2,,Smithe St,355,North
1139,49.2777697,-123.098415,1,,Union St,241,North
1140,49.2777428,-123.0981522,1,,Union St,243,North
1141,49.2770652,-123.0816371,1,,Venables St,1033,North
1142,49.2769134,-123.0774592,1,,Venables St,1255,North
1143,49.276856,-123.0744843,1,,Venables St,1495,North
1144,49.2769309,-123.0709241,1,,Venables St,1685,North
1145,49.238702,-123.065214,1,,Victoria Drive,5026,East
1146,49.2385526,-123.0651974,1,,Victoria Drive,5052,East
1147,49.2378876,-123.0656865,1,,Victoria Drive,5157,West
1148,49.2348694,-123.0657174,1,,Victoria Drive,5449,West
1149,49.2350785,-123.0652963,1,,Victoria Drive,5492,East
1150,49.2343519,-123.0656884,1,,Victoria Drive,5501,West
1151,49.2322675,-123.0652042,1,,Victoria Drive,5732,East
1152,49.2316531,-123.0653917,1,,Victoria Drive,5780,East
1153,49.2206417,-123.066111,1,,Victoria Drive,6979,West
1154,49.2636149,-123.2085421,1,,W 10th Av,4480,South
1155,49.2639799,-123.2085501,1,,W 10th Av,4485,North
1156,49.2577545,-123.1646525,1,,W 16th Av,2595,North
1157,49.2577545,-123.1646525,1,,W 16th Av,2595,North
1158,49.2578849,-123.1651475,1,,W 16th Av,2607,North
1159,49.2573289,-123.1666975,1,,W 16th Av,2756,South
1160,49.2681074,-123.1072568,1,,W 3rd Av,126,South
1161,49.2682473,-123.1084842,1,,W 3rd Av,190,South
1162,49.2681318,-123.1105145,1,,W 3rd Av,290,South
1163,49.2344114,-123.1610939,1,,W 41st Av,2380,South
1164,49.2348383,-123.1619945,1,,W 41st Av,2443,North
1165,49.2675172,-123.1011562,3,,W 4th,165,North
1166,49.2682049,-123.1449263,2,,W 4th Av,1793,North
1167,49.2682729,-123.1468785,1,,W 4th Av,1855,North
1168,49.2682543,-123.1471978,1,,W 4th Av,1869,North
1169,49.2682841,-123.1476728,1,,W 4th Av,1885,North
1170,49.2682732,-123.1494515,1,,W 4th Av,1961,North
1171,49.2682283,-123.150953,1,,W 4th Av,2021,North
1172,49.267934,-123.1516566,1,,W 4th Av,2052,South
1173,49.2683753,-123.1523856,1,,W 4th Av,2089,North
1174,49.2682652,-123.1538373,1,,W 4th Av,2141,North
1175,49.2682652,-123.1538373,1,,W 4th Av,2141,North
1176,49.2680253,-123.1544385,1,,W 4th Av,2170,South
1177,49.2680253,-123.1544385,1,,W 4th Av,2170,South
1178,49.2684145,-123.1548368,1,,W 4th Av,2199,North
1179,49.2679457,-123.1559443,1,,W 4th Av,2228,South
1180,49.2680412,-123.1594654,1,,W 4th Av,2388,South
1181,49.2684853,-123.1655865,1,,W 4th Av,2645,North
1182,49.2685773,-123.1699084,1,,W 4th Av,2923,North
1183,49.2681413,-123.1714674,1,,W 4th Av,2954,South
1184,49.2684506,-123.1830726,1,,W 4th Av,3570,South
1185,49.2687287,-123.1833204,2,,W 4th Av,3571,North
1186,49.2684732,-123.1834864,1,,W 4th Av,3598,South
1187,49.2686091,-123.18362,1,,W 4th Av,3600,South
1188,49.2687759,-123.1838257,1,,W 4th Av,3605,North
1189,49.2684734,-123.1839515,1,,W 4th Av,3608,South
1190,49.2687681,-123.184191,1,,W 4th Av,3621,North
1191,49.2660153,-123.139329,1,,W 6th Av,1520,South
1192,49.266382,-123.1408398,1,,W 6th Av,1595,North
1193,49.2649038,-123.1078622,3,,W 7th Av,149,North
1194,49.264022,-123.1152825,3,,W 8th,510,South
1195,49.2635949,-123.1087202,1,,W 8th Av,156,South
1196,49.2637234,-123.1104871,2,,W 8th Av,260,South
1197,49.2637855,-123.1124134,1,,W 8th Av,386,South
1198,49.2637436,-123.11263,1,,W 8th Av,390,South
1199,49.2632532,-123.1082576,1,,W Broadway,155,North
1200,49.2630143,-123.1100261,1,,W Broadway,222,South
1201,49.263626,-123.1235869,1,,W Broadway,885,North
1202,49.2631216,-123.1244702,1,,W Broadway,906,South
1203,49.2637068,-123.1285137,1,,W Broadway,1089,North
1204,49.2633813,-123.132744,1,,W Broadway,1268,South
1205,49.2633586,-123.1328321,1,,W Broadway,1278,South
1206,49.2638793,-123.14468,1,,W Broadway,1755,North
1207,49.2639991,-123.1472191,2,,W Broadway,1867,North
1208,49.2635615,-123.153939,1,,W Broadway,2154,South
1209,49.2640726,-123.1559981,1,,W Broadway,2221,North
1210,49.2641782,-123.1563626,1,,W Broadway,2245,North
1211,49.2638555,-123.1643886,1,,W Broadway,2582,South
1212,49.2640736,-123.1654945,3,,W Broadway,2665,North
1213,49.2816608,-123.1162251,1,,W Georgia St,555,North
1214,49.2834361,-123.1192058,1,,W Georgia St,801,North
1215,49.2841444,-123.1199049,3,,W Georgia St,925,North
1216,49.2849327,-123.1211805,1,,W Georgia St,1025,North
1217,49.2844938,-123.1219294,1,,W Georgia St,1030,South
1218,49.2853911,-123.1215501,4,,W Georgia St,1055,North
1219,49.2908118,-123.1316086,1,,W Georgia St,1616,South
1220,49.2820917,-123.1059682,1,,W Hastings St,43,North
1221,49.2818442,-123.1081617,1,,W Hastings St,128,South
1222,49.2822228,-123.1094417,3,,W Hastings St,198,South
1223,49.282941,-123.1096791,2,,W Hastings St,207,West
1224,49.2827874,-123.1099664,1,,W Hastings St,219,North
1225,49.2828057,-123.1102398,1,,W Hastings St,300,South
1226,49.2834246,-123.1109982,1,,W Hastings St,412,South
1227,49.2840272,-123.1122626,2,,W Hastings St,510,South
1228,49.2846966,-123.1119349,1,,W Hastings St,555,North
1229,49.284789,-123.113677,2,,W Hastings St,602,South
1230,49.2853229,-123.1133965,1,,W Hastings St,675,North
1231,49.2847894,-123.1136766,1,,W Hastings St,688,South
1232,49.2853295,-123.113976,2,,W Hastings St,700,South
1233,49.2861412,-123.1157307,2,,W Hastings St,838,South
1234,49.2865591,-123.1164144,2,,W Hastings St,900,South
1235,49.2877332,-123.1182842,2,,W Hastings St,1055,North
1236,49.2885224,-123.1206594,1,,W Hastings St,1133,North
1237,49.2810058,-123.105801,1,,W Pender St,27,North
1238,49.2811401,-123.1067625,1,,W Pender St,59,North
1239,49.2821722,-123.1112717,2,,W Pender St,300,South
1240,49.2824808,-123.1110867,1,,W Pender St,309,North
1241,49.2822895,-123.111499,1,,W Pender St,328,South
1242,49.2827284,-123.112309,1,,W Pender St,402,South
1243,49.2828274,-123.1124925,1,,W Pender St,416,South
1244,49.2834114,-123.1124647,1,,W Pender St,455,North
1245,49.2834217,-123.113316,1,,W Pender St,518,South
1246,49.2834217,-123.113316,1,,W Pender St,518,South
1247,49.2843906,-123.1138978,1,,W Pender St,605,North
1248,49.284336,-123.114162,1,,W Pender St,617,North
1249,49.2856893,-123.1160558,1,,W Pender St,819,North
1250,49.2857457,-123.1163522,1,,W Pender St,829,North
1251,49.2856267,-123.116776,1,,W Pender St,830,South
1252,49.2856267,-123.116776,1,,W Pender St,830,South
1253,49.2875786,-123.119728,1,,W Pender St,1095,North
1254,49.2876314,-123.1221129,2,,W Pender St,1140,South
1255,49.2815573,-123.1108429,4,,W Pender St,250,West
1256,49.2834535,-123.1047511,2,,Water St,10,South
1257,49.2837739,-123.1067002,1,,Water St,102,South
1258,49.2845468,-123.1085117,1,,Water St,199,North
1259,49.2376685,-123.1556307,1,,West Boulevard,5367,West
1260,49.2654961,-123.1217569,1,,Willow St,2300,West
1261,49.272453,-123.1547367,1,,Yew St,1500,East
1262,49.2722315,-123.155229,1,,Yew St,1525,West
1263,49.271515,-123.1551789,5,,Yew St,1601,West
1264,49.271515,-123.1551789,5,,Yew St,1601,West
1265,49.2651419,-123.1554907,1,,Yew St,2327,West
1266,49.2348861,-123.1576114,2,,Yew St,5692,East
1267,49.2715923,-123.1478338,1,,York Av,1900,North
1268,49.2778921,-123.0760029,2,,Adanac St,1351,North
1269,49.2779761,-123.0757738,1,,Adanac St,1375,North
1270,49.2838057,-123.1029041,1,,Alexander St,55,North
1271,49.283638,-123.102348,10,,Alexander St,90,South
1272,49.2842089,-123.09769,1,,Alexander St,305,North
1273,49.283951,-123.096892,2,,Alexander St,320,South
1274,49.2841376,-123.0946235,2,,Alexander St,429,North
1275,49.2841506,-123.0939074,2,,Alexander St,475,North
1276,49.2843319,-123.0906563,3,,Alexander St,611,North
1277,49.2840005,-123.0992783,2,,Alexander St,200,North
1278,49.2630191,-123.1527858,1,,Arbutus St,2576,East
1279,49.2627198,-123.1527924,1,,Arbutus St,2620,East
1280,49.2626303,-123.152817,1,,Arbutus St,2630,East
1281,49.26221,-123.1527085,1,,Arbutus St,2680,East
1282,49.2617583,-123.1527993,1,,Arbutus St,2738,East
1283,49.234394,-123.1617697,2,,Balsam St,5723,West
1284,49.2872096,-123.1325898,1,,Barclay St,1447,North
1285,49.2644683,-123.170967,1,,Bayswater St,2486,East
1286,49.2804969,-123.109298,1,,Beatty St,546,East
1287,49.2803238,-123.1092944,2,,Beatty St,550,East
1288,49.2798529,-123.1099283,2,Stadium-Chinatown,Beatty St,590,East
1289,49.2798502,-123.1105849,2,,Beatty St,600,East
1290,49.2793959,-123.1107018,6,,Beatty St,620,East
1291,49.2781059,-123.1134693,3,,Beatty St,773,West
1292,49.277727,-123.1132081,2,,Beatty St,780,East
1293,49.277727,-123.1132081,1,,Beatty St,780,East
1294,49.2773076,-123.1148482,1,,Beatty St,837,West
1295,49.2770285,-123.1151337,2,,Beatty St,855,East
1296,49.2770911,-123.1151802,2,,Beatty St,857,West
1297,49.2769388,-123.1151596,1,,Beatty St,869,West
1298,49.2761941,-123.1157455,7,,Beatty St,928,East
1299,49.2762645,-123.1164862,1,,Beatty St,939,West
1300,49.2644319,-123.1336909,1,,Birch St,2400,West
1301,49.2650165,-123.1776118,1,,Blenheim St,2400,East
1302,49.2580749,-123.1779136,1,,Blenheim St,3190,East
1303,49.2830095,-123.1373556,2,,Broughton St,1300,West
1304,49.2857446,-123.1182499,1,,Burrard St,550,East
1305,49.2854325,-123.1200786,4,Burrrad,Burrard St,635,West
1306,49.2805926,-123.1282296,3,,Burrard St,1081,West
1307,49.2795116,-123.1293019,1,,Burrard St,1157,West
1308,49.2793171,-123.128326,1,,Burrard St,1160,East
1309,49.2784466,-123.1295886,1,,Burrard St,1238,East
1310,49.2776801,-123.1309595,1,,Burrard St,1310,East
1311,49.2773144,-123.1314132,1,,Burrard St,1350,East
1312,49.2668376,-123.1453834,2,,Burrard St,2110,East
1313,49.2649213,-123.1459127,1,,Burrard St,2385,West
1314,49.2642716,-123.1459436,1,,Burrard St,2421,West
1315,49.2878314,-123.1236099,3,,Bute St,580,East
1316,49.2827291,-123.1207375,1,,Bute St,800,West
1317,49.284374,-123.1292243,2,,Bute St,936,East
1318,49.2831142,-123.109,1,,Cambie St,300,East
1319,49.2832533,-123.109406,1,,Cambie St,317,West
1320,49.2827963,-123.1090905,2,,Cambie St,340,East
1321,49.2817386,-123.1095914,1,,Cambie St,440,East
1322,49.2774118,-123.1163239,3,,Cambie St,891,West
1323,49.2772619,-123.1162378,2,,Cambie St,896,South
1324,49.2591737,-123.1152139,1,,Cambie St,2931,West
1325,49.2499562,-123.1150368,2,,Cambie St,4008,East
1326,49.2498405,-123.1155811,2,,Cambie St,4023,West
1327,49.2496411,-123.1155839,1,,Cambie St,4033,West
1328,49.2492029,-123.115625,22,King Edward,Cambie St,4099,West
1329,49.2803536,-123.1045579,2,,Carrall St,511,West
1330,49.2792272,-123.0767164,1,,Clark Drive,620,East
1331,49.2735044,-123.077482,2,,Clark Drive,1269,West
1332,49.2829424,-123.1025501,1,,Columbia St,211,West
1333,49.2818382,-123.1024114,1,,Columbia St,351,East
1334,49.2672744,-123.1098234,2,,Columbia St,2021,West
1335,49.2722609,-123.0692191,2,,Commercial Dr,1380,East
1336,49.2752632,-123.069331,1,,Commercial Drive,1034,East
1337,49.2720501,-123.0694232,1,,Commercial Drive,1404,East
1338,49.271209,-123.0698829,1,,Commercial Drive,1505,West
1339,49.2865189,-123.1367784,1,,Comox St,1592,South
1340,49.2876653,-123.1381018,3,,Comox St,1700,North
1341,49.288322,-123.138554,5,,Comox St,1733,North
1342,49.2723647,-123.1554389,2,,Cornwall Av,2210,South
1343,49.2806888,-123.1311259,2,,Davie St,1105,North
1344,49.2817883,-123.1335975,1,,Davie St,1202,South
1345,49.281838,-123.1336756,2,,Davie St,1204,South
1346,49.282129,-123.134138,1,,Davie St,1232,South
1347,49.2828004,-123.1346176,1,,Davie St,1295,North
1348,49.2854794,-123.1388545,1,,Davie St,1641,North
1349,49.291919,-123.1344441,2,,Denman St,710,East
1350,49.2919368,-123.1345661,1,,Denman St,718,East
1351,49.2920341,-123.1348563,1,,Denman St,745,West
1352,49.2909574,-123.1365014,2,,Denman St,849,West
1353,49.2897347,-123.1377913,1,,Denman St,958,East
1354,49.2899014,-123.1381245,1,,Denman St,961,West
1355,49.2888876,-123.1397052,2,,Denman St,1055,West
1356,49.2872573,-123.1412277,3,,Denman St,1184,East
1357,49.2872573,-123.1412277,1,,Denman St,1184,East
1358,49.2877737,-123.1412635,1,,Denman St,1187,West
1359,49.2751952,-123.1268482,1,,Drake St,530,South
1360,49.2641721,-123.1839964,1,,Dunbar St,2505,West
1361,49.257841,-123.185105,1,,Dunbar St,3204,East
1362,49.2572014,-123.1847552,1,,Dunbar St,3308,East
1363,49.2487463,-123.1856164,1,,Dunbar St,4219,West
1364,49.2486793,-123.1854813,1,,Dunbar St,4231,West
1365,49.2485815,-123.1855088,1,,Dunbar St,4243,West
1366,49.2476724,-123.1848169,1,,Dunbar St,4326,East
1367,49.2464844,-123.1855024,1,,Dunbar St,4467,West
1368,49.2356336,-123.1855734,2,,Dunbar St,5601,West
1369,49.2849201,-123.0598843,1,,Dundas St,2177,North
1370,49.2847425,-123.0953879,1,,Dunlevy Av,37,West
1371,49.2847425,-123.0953879,1,,Dunlevy Av,37,West
1372,49.2843192,-123.0956589,1,,Dunlevy Av,55,West
1373,49.2828272,-123.0954687,2,,Dunlevy Av,211,West
1374,49.28092,-123.095595,2,,Dunlevy Av,433,West
1375,49.2804447,-123.1107314,2,,Dunsmuir St,111,West
1376,49.2848932,-123.118376,1,,Dunsmuir St,900,South
1377,49.2623258,-123.1028888,2,,E 10th,111,North
1378,49.2613708,-123.0697964,1,,E 10th Av,1700,North
1379,49.260227,-123.0678278,1,,E 11th Av,1800,North
1380,49.2592021,-123.0451146,1,,E 12th Av,2800,South
1381,49.2573566,-123.0908627,1,,E 15th Av,617,North
1382,49.2572938,-123.0902815,1,,E 15th St,639,North
1383,49.2573999,-123.0900881,1,,E 15th St,649,North
1384,49.2485415,-123.0558866,3,Nanaimo,E 24th Av,2450,South
1385,49.2684773,-123.1016717,1,,E 3rd,143,North
1386,49.2302643,-123.0909677,2,,E 44th Av,683,North
1387,49.229109,-123.091178,2,,E 45th Av,696,South
1388,49.2657665,-123.1037429,1,,E 6th Av,45,North
1389,49.2654461,-123.1034794,2,,E 6th Av,48,South
1390,49.2656134,-123.1003938,2,,E 6th Av,203,North
1391,49.2656087,-123.1001642,1,,E 6th Av,209,North
1392,49.2648582,-123.0715802,1,,E 6th Av,1600,South
1393,49.2649561,-123.1104919,3,,E 7th Av,265,North
1394,49.2631842,-123.1027294,1,,E Broadway,105,North
1395,49.2631237,-123.102297,1,,E Broadway,127,North
1396,49.262354,-123.0924698,1,,E Broadway,518,South
1397,49.2626839,-123.0905008,1,,E Broadway,615,North
1398,49.2625289,-123.0691806,4,Commercial-Broadway,E Broadway,1725,North
1399,49.282365,-123.104637,1,,E Cordova St,8,South
1400,49.278462,-123.0993055,1,,E Georgia St,208,South
1401,49.2787559,-123.0989242,1,,E Georgia St,217,North
1402,49.2787186,-123.0932563,2,,E Georgia St,501,North
1403,49.2809976,-123.0970054,3,,E Hastings St,320,South
1404,49.2813782,-123.0912079,1,,E Hastings St,601,North
1405,49.2809163,-123.0893307,1,,E Hastings St,708,South
1406,49.2812703,-123.0886705,1,,E Hastings St,717,North
1407,49.281277,-123.0879565,2,,E Hastings St,769,North
1408,49.281277,-123.0879565,1,,E Hastings St,769,North
1409,49.2860427,-123.1155454,1,,E Hastings St,828,South
1410,49.280891,-123.0855139,1,,E Hastings St,872,South
1411,49.2813236,-123.0855155,1,,E Hastings St,875,North
1412,49.2864645,-123.1162612,1,,E Hastings St,878,South
1413,49.2807959,-123.0850162,3,,E Hastings St,890,South
1414,49.2814968,-123.0745067,1,,E Hastings St,1489,North
1415,49.2809241,-123.0695839,1,,E Hastings St,1736,South
1416,49.2809014,-123.0692405,1,,E Hastings St,1756,South
1417,49.2814209,-123.0651432,1,,E Hastings St,1909,North
1418,49.2810265,-123.0580193,1,,E Hastings St,2296,South
1419,49.2810054,-123.0571057,1,,E Hastings St,2342,South
1420,49.2812781,-123.0553772,1,,E Hastings St,2465,North
1421,49.2814764,-123.0524809,1,,E Hastings St,2585,North
1422,49.2808946,-123.0501481,1,,E Hastings St,2674,South
1423,49.2814036,-123.0295088,1,,E Hastings St,3433,North
1424,49.2809761,-123.0269839,3,,E Hastings St,3550,South
1425,49.2809795,-123.0266646,1,,E Hastings St,3578,South
1426,49.2808897,-123.0244077,2,,E Hastings St,3660,South
1427,49.2809257,-123.1083648,1,,E Pender St,100,South
1428,49.2821783,-123.0761806,2,,Franklin St,1338,South
1429,49.2547918,-123.0901694,1,,Fraser St,3381,West
1430,49.2541068,-123.0902324,1,,Fraser St,3469,West
1431,49.25385,-123.0902492,1,,Fraser St,3497,West
1432,49.2487942,-123.0903749,1,,Fraser St,4097,West
1433,49.2484775,-123.0906332,1,,Fraser St,4129,West
1434,49.2474075,-123.0898893,3,,Fraser St,4208,East
1435,49.2473211,-123.0899598,1,,Fraser St,4230,East
1436,49.2467389,-123.0904299,2,,Fraser St,4287,West
1437,49.2468257,-123.0899546,1,,Fraser St,4288,East
1438,49.246459,-123.0903895,1,,Fraser St,4305,West
1439,49.2397117,-123.0901798,1,,Fraser St,4950,East
1440,49.2305548,-123.0908626,1,,Fraser St,5955,West
1441,49.230441,-123.0908226,1,,Fraser St,5965,West
1442,49.2261773,-123.0905579,1,,Fraser St,6434,East
1443,49.2885711,-123.142681,1,,Gilford St,1154,East
1444,49.2777421,-123.0971616,2,,Gore Av,789,West
1445,49.2777421,-123.0971616,2,,Gore St,789,North
1446,49.2583349,-123.0459268,2,,Grandview Highway,2825,North
1447,49.284723,-123.1142409,1,,Granville St,470,East
1448,49.2818857,-123.1185759,1,,Granville St,736,East
1449,49.2812741,-123.1204791,1,,Granville St,819,West
1450,49.2807097,-123.1205438,1,,Granville St,850,East
1451,49.2807514,-123.1214697,1,,Granville St,881,West
1452,49.277255,-123.1254342,2,,Granville St,1176,East
1453,49.2758738,-123.1277637,3,,Granville St,1306,East
1454,49.2633412,-123.1383649,1,,Granville St,2516,East
1455,49.2616121,-123.1388328,1,,Granville St,2705,West
1456,49.2604676,-123.1383776,1,,Granville St,2814,East
1457,49.2599573,-123.1382727,1,,Granville St,2888,East
1458,49.2591852,-123.1391163,1,,Granville St,2977,West
1459,49.2590881,-123.1384195,1,,Granville St,2996,East
1460,49.259021,-123.1389422,1,,Granville St,2997,West
1461,49.2587304,-123.1389715,1,,Granville St,3007,West
1462,49.21334,-123.1406244,2,,Granville St,7985,West
1463,49.212544,-123.1406519,2,,Granville St,8075,West
1464,49.2121552,-123.1409273,1,,Granville St,8155,West
1465,49.2106099,-123.1400432,1,,Granville St,8324,East
1466,49.2087457,-123.1402437,1,,Granville St,8594,East
1467,49.2081156,-123.1401165,1,,Granville St,8630,East
1468,49.2077709,-123.1403249,1,,Granville St,8662,East
1469,49.2634215,-123.1198703,1,,Heather St,2500,East
1470,49.2565935,-123.1203429,1,,Heather St,3261,West
1471,49.2564588,-123.1203606,1,,Heather St,3265,West
1472,49.2827291,-123.1207375,1,,Heather St,3275,West
1473,49.2827291,-123.1207375,2,,Heather St,3275,West
1474,49.2778627,-123.1240727,3,,Helmcken St,600,North
1475,49.2801491,-123.127601,1,,Helmcken St,1085,West
1476,49.2837193,-123.1101968,1,,Homer St,318,East
1477,49.2786163,-123.1184615,2,,Homer St,891,West
1478,49.2770208,-123.1200688,5,,Homer St,1008,South
1479,49.2764632,-123.1209896,1,,Homer St,1068,East
1480,49.2759433,-123.1216372,1,,Homer St,1122,East
1481,49.2754678,-123.1224107,1,,Homer St,1148,East
1482,49.28055,-123.125551,3,,Hornby St,1001,West
1483,49.2796889,-123.1258862,1,,Hornby St,1054,East
1484,49.2795608,-123.1262617,1,,Hornby St,1090,East
1485,49.2758636,-123.1325561,3,,Hornby St,1451,West
1486,49.2851251,-123.1167263,1,,Howe St,535,West
1487,49.2845315,-123.1175059,2,,Howe St,595,West
1488,49.2378945,-123.0319888,1,,Joyce St,5128,East
1489,49.2639097,-123.1000823,3,,Kingsway,39,North
1490,49.2631887,-123.1000635,2,,Kingsway,76,West
1491,49.2592681,-123.0958538,1,,Kingsway,398,South
1492,49.2558594,-123.0884254,1,,Kingsway,772,South
1493,49.2549378,-123.0864386,1,,Kingsway,868,South
1494,49.2547102,-123.0859387,1,,Kingsway,888,South
1495,49.2539137,-123.0834215,1,,Kingsway,1009,North
1496,49.2537814,-123.0831628,1,,Kingsway,1021,North
1497,49.2533168,-123.0833906,1,,Kingsway,1022,South
1498,49.2533168,-123.0833906,1,,Kingsway,1022,South
1499,49.2529056,-123.0820878,1,,Kingsway,1096,South
1500,49.252397,-123.081224,1,,Kingsway,1134,South
1501,49.2516689,-123.0783846,1,,Kingsway,1279,North
1502,49.2511833,-123.0772991,1,,Kingsway,1333,North
1503,49.2500737,-123.0764241,1,,Kingsway,1398,South
1504,49.2473441,-123.0703806,1,,Kingsway,1680,South
1505,49.2460582,-123.067467,1,,Kingsway,1818,South
1506,49.2444802,-123.0644541,1,,Kingsway,2066,South
1507,49.2409377,-123.0567769,1,,Kingsway,2386,South
1508,49.2409377,-123.0567769,1,,Kingsway,2392,South
1509,49.2319062,-123.0275628,1,,Kingsway,3544,South
1510,49.2326922,-123.0241837,2,,Kingsway,3665,North
1511,49.2495888,-123.0763259,1,,Knight St,3919,West
1512,49.2319371,-123.0262929,1,,Lincoln St,5818,East
1513,49.2506878,-123.1681081,1,,Macdonald St,4021,West
1514,49.2502731,-123.1679844,1,,Macdonald St,4075,West
1515,49.2498123,-123.1679977,1,,Macdonald St,4105,West
1516,49.2835091,-123.0997396,1,,Main St,179,West
1517,49.2826847,-123.0999126,2,,Main St,231,West
1518,49.282095,-123.099912,1,,Main St,309,West
1519,49.2780221,-123.0994114,1,,Main St,728,East
1520,49.2757092,-123.0995619,1,,Main St,1008,South
1521,49.27567,-123.100173,1,,Main St,1011,West
1522,49.2731373,-123.10036,4,Main St-Science World,Main St,1399,West
1523,49.2659246,-123.1004072,2,,Main St,2136,East
1524,49.2639344,-123.1013667,2,,Main St,2345,West
1525,49.2615837,-123.100737,2,,Main St,2630,East
1526,49.260986,-123.100708,1,,Main St,2702,East
1527,49.259977,-123.1008489,1,,Main St,2812,East
1528,49.2594578,-123.1014422,1,,Main St,2899,West
1529,49.2587255,-123.1017508,1,,Main St,2949,West
1530,49.2582219,-123.1007835,1,,Main St,3010,East
1531,49.2576348,-123.1008393,2,,Main St,3096,East
1532,49.2572552,-123.1008704,1,,Main St,3102,East
1533,49.2544611,-123.1012989,2,,Main St,3425,West
1534,49.2542664,-123.1012031,1,,Main St,3443,West
1535,49.2535186,-123.1012352,2,,Main St,3511,West
1536,49.2533163,-123.101243,1,,Main St,3573,West
1537,49.251916,-123.1012221,2,,Main St,3699,West
1538,49.2506857,-123.1013654,1,,Main St,3835,West
1539,49.2504571,-123.1007837,1,,Main St,3882,East
1540,49.2491207,-123.1014656,2,,Main St,4071,West
1541,49.2482846,-123.1006968,1,,Main St,4136,East
1542,49.2480093,-123.1007085,1,,Main St,4162,East
1543,49.2478472,-123.1013502,1,,Main St,4205,East
1544,49.2469586,-123.1008554,1,,Main St,4262,East
1545,49.246713,-123.1008309,1,,Main St,4288,East
1546,49.2464617,-123.1014422,1,,Main St,4363,West
1547,49.244174,-123.1011214,1,,Main St,4514,East
1548,49.2442134,-123.1017058,1,,Main St,4515,West
1549,49.2437987,-123.1011289,1,,Main St,4560,East
1550,49.2430135,-123.1009716,2,,Main St,4628,East
1551,49.2327231,-123.1014933,1,,Main St,5749,West
1552,49.2776705,-123.1175478,1,,Mainland St,900,West
1553,49.2729256,-123.0563463,1,,Nanaimo St,1316,East
1554,49.2728312,-123.0562425,1,,Nanaimo St,1340,East
1555,49.2760384,-123.1185855,2,,Nelson St,200,South
1556,49.2575925,-123.1271166,2,,Oak St,3108,East
1557,49.2569903,-123.1270532,1,,Oak St,3208,East
1558,49.2326779,-123.1018297,1,,Ontario Place,189,North
1559,49.2627706,-123.105162,1,,Ontario St,2515,West
1560,49.274176,-123.1195408,1,,Pacific Boulevard,1108,South
1561,49.2746107,-123.1205567,1,,Pacific Boulevard,1165,North
1562,49.274339,-123.1211785,2,,Pacific Boulevard,1195,North
1563,49.2739312,-123.1208253,1,,Pacific Boulevard,1196,South
1564,49.2740663,-123.1222457,1,,Pacific Boulevard,1213,North
1565,49.2740663,-123.1222457,1,,Pacific Boulevard,1213,North
1566,49.2737518,-123.1232805,1,,Pacific Boulevard,1267,North
1567,49.2733999,-123.1229262,1,,Pacific Boulevard,1282,South
1568,49.2719551,-123.1246334,3,,Pacific Boulevard,1300,South
1569,49.2716146,-123.1694481,2,,Point Grey Rd,2855,North
1570,49.271553,-123.1759725,2,,Point Grey Rd,3215,North
1571,49.283256,-123.098226,1,,Powell St,253,North
1572,49.282881,-123.0974085,2,,Powell St,300,South
1573,49.2830108,-123.0960445,1,,Powell St,374,South
1574,49.283123,-123.0950041,1,,Powell St,398,South
1575,49.2833422,-123.0950377,1,,Powell St,403,North
1576,49.2832984,-123.0924507,3,,Powell St,537,North
1577,49.2833026,-123.0923411,1,,Powell St,543,North
1578,49.2828848,-123.0899053,2,,Powell St,668,South
1579,49.2828199,-123.0897467,2,,Powell St,686,South
1580,49.2830828,-123.0863571,1,,Powell St,825,North
1581,49.2689357,-123.102041,3,,Quebec St,1818,East
1582,49.2666909,-123.10308,1,,Quebec St,2043,West
1583,49.2847251,-123.0967432,1,,Railway St,343,North
1584,49.2851785,-123.0941642,1,,Railway St,439,North
1585,49.2834473,-123.112554,1,,Richards St,440,West
1586,49.2826717,-123.1141849,1,,Richards St,577,West
1587,49.2798224,-123.1180829,1,,Richards St,808,East
1588,49.2782438,-123.1206899,2,,Richards St,971,West
1589,49.2761358,-123.1233819,2,,Richards St,1188,East
1590,49.2743634,-123.1260455,2,,Richards St,1320,East
1591,49.2737842,-123.127411,1,,Richards St,1400,West
1592,49.2779317,-123.1138837,1,,Robson St,111,North
1593,49.2779317,-123.1138837,2,,Robson St,111,West
1594,49.2775171,-123.1146919,2,,Robson St,118,East
1595,49.2784421,-123.1149881,2,,Robson St,211,North
1596,49.278056,-123.1156381,1,,Robson St,238,South
1597,49.2786512,-123.115353,1,,Robson St,255,North
1598,49.2788549,-123.1156362,1,,Robson St,265,North
1599,49.2788206,-123.1155357,2,,Robson St,275,North
1600,49.278538,-123.1159119,1,,Robson St,280,South
1601,49.2791013,-123.1166285,1,,Robson St,350,South
1602,49.2797553,-123.1178849,2,,Robson St,480,South
1603,49.2840264,-123.1233407,2,,Robson St,1025,North
1604,49.2857473,-123.1262889,1,,Robson St,1175,North
1605,49.2859149,-123.1264006,1,,Robson St,1187,North
1606,49.2865324,-123.1271737,1,,Robson St,1225,North
1607,49.2866662,-123.1283114,1,,Robson St,1280,South
1608,49.2867745,-123.1285849,1,,Robson St,1290,South
1609,49.2898787,-123.1336737,1,,Robson St,1688,South
1610,49.2906461,-123.1338744,1,,Robson St,1701,North
1611,49.2914723,-123.1351595,1,,Robson St,1793,North
1612,49.2824227,-123.1164772,4,Granville St,Seymour St,655,West
1613,49.279665,-123.1209837,1,,Seymour St,901,West
1614,49.2790699,-123.1208517,3,,Seymour St,930,North
1615,49.2780743,-123.1223309,3,,Seymour St,1022,South
1616,49.2769331,-123.1245932,1,,Seymour St,1160,East
1617,49.2766932,-123.1155903,3,,Smithe St,101,North
1618,49.2686256,-123.1182459,2,,Stamps Landing,600,south
1619,49.2681116,-123.1665439,2,,Stephens St,2025,West
1620,49.2870593,-123.1214756,1,,Thurlow St,535,West
1621,49.2639459,-123.205823,1,,Trimble St,2590,East
1622,49.2777797,-123.0989601,1,,Union St,219,North
1623,49.2777797,-123.0989601,1,,Union St,219,North
1624,49.2369422,-123.0654276,1,,Victoria Drive,5265,West
1625,49.2354711,-123.0653662,1,,Victoria Drive,5393,West
1626,49.2354235,-123.0652928,1,,Victoria Drive,5448,East
1627,49.2334075,-123.0653572,1,,Victoria Drive,5656,East
1628,49.2323909,-123.0657161,1,,Victoria Drive,5723,West
1629,49.2311124,-123.0657589,1,,Victoria Drive,5853,West
1630,49.2308643,-123.0658076,1,,Victoria Drive,5885,West
1631,49.2261476,-123.0655239,1,,Victoria Drive,6404,East
1632,49.2258674,-123.065541,1,,Victoria Drive,6440,East
1633,49.2209344,-123.0660628,1,,Victoria Drive,6945,West
1634,49.2633134,-123.18619,1,,W 10th Av,3702,South
1635,49.2636579,-123.1868848,1,,W 10th Av,3743,North
1636,49.26364,-123.1874386,1,,W 10th Av,3783,North
1637,49.2636164,-123.2038925,1,,W 10th Av,4330,South
1638,49.2636551,-123.2044281,1,,W 10th Av,4346,South
1639,49.2639452,-123.2073412,1,,W 10th Av,4441,North
1640,49.2636481,-123.2097372,1,,W 10th Av,4516,South
1641,49.2636051,-123.2098771,1,,W 10th Av,4520,South
1642,49.2636818,-123.2115503,1,,W 10th Av,4580,South
1643,49.2597083,-123.1391394,1,,W 13th Av,1500,South
1644,49.2576753,-123.1267281,1,,W 15th Av,980,South
1645,49.2578287,-123.1651169,2,,W 16th Av,2603,North
1646,49.2704875,-123.106346,12,,W 1st Av,85,South
1647,49.2708389,-123.1480586,1,,W 1st Av,1901,North
1648,49.2709727,-123.1552829,1,,W 1st Av,2201,West
1649,49.2524975,-123.1270536,1,,W 21st Av,988,South
1650,49.2689678,-123.1072589,1,,W 2nd Av,118,South
1651,49.2667533,-123.1147466,4,Olympic Village,W 2nd Av,525,North
1652,49.2695198,-123.1419542,1,,W 2nd Av,1650,South
1653,49.2685887,-123.1068373,1,,W 3rd Av,105,North
1654,49.2690699,-123.1449307,1,,W 3rd Av,1777,North
1655,49.2344261,-123.1529766,1,,W 41st Av,2028,South
1656,49.234297,-123.1547419,1,,W 41st Av,2094,South
1657,49.2347554,-123.158236,1,,W 41st Av,2225,North
1658,49.2348155,-123.1597965,1,,W 41st Av,2305,North
1659,49.2344827,-123.1603228,1,,W 41st Av,2326,South
1660,49.2344904,-123.1620027,1,,W 41st Av,2448,South
1661,49.2346047,-123.182402,1,,W 41st Av,3502,South
1662,49.2349129,-123.183803,5,,W 41st Av,3535,North
1663,49.2346438,-123.1844256,2,,W 41st Av,3584,South
1664,49.2348861,-123.185161,1,,W 41st Av,3591,North
1665,49.2271134,-123.1515927,1,,W 49th Av,1988,South
1666,49.2676929,-123.14127,1,,W 4th Av,1618,South
1667,49.2678405,-123.1416392,1,,W 4th Av,1628,South
1668,49.2681238,-123.1440825,1,,W 4th Av,1731,North
1669,49.268006,-123.1569265,1,,W 4th Av,2274,South
1670,49.2680165,-123.158373,1,,W 4th Av,2340,South
1671,49.2684888,-123.1594562,1,,W 4th Av,2383,North
1672,49.2684888,-123.1594562,1,,W 4th Av,2383,North
1673,49.2681794,-123.1652247,1,,W 4th Av,2660,South
1674,49.2682121,-123.1668536,1,,W 4th Av,2716,South
1675,49.2684786,-123.167117,1,,W 4th Av,2741,North
1676,49.268216,-123.1672693,1,,W 4th Av,2744,South
1677,49.268245,-123.167802,2,,W 4th Av,2766,South
1678,49.2682348,-123.1690502,1,,W 4th Av,2836,South
1679,49.2682215,-123.1699093,1,,W 4th Av,2880,South
1680,49.268486,-123.1847255,1,,W 4th Av,3644,South
1681,49.2687719,-123.1847372,1,,W 4th Av,3651,North
1682,49.2687506,-123.1854023,1,,W 4th Av,3689,North
1683,49.2663515,-123.1090233,1,,W 5th Av,164,South
1684,49.2662863,-123.1056439,1,,W 5th Ave,32,South
1685,49.2645705,-123.1097013,1,,W 7th Av,228,South
1686,49.2640601,-123.1140494,1,,W 8th,473,North
1687,49.2637499,-123.1107366,1,,W 8th Av,288,South
1688,49.263771,-123.1118833,4,,W 8th Av,342,South
1689,49.2641982,-123.1244996,1,,W 8th Av,900,North
1690,49.2644931,-123.138573,1,,W 8th Av,1500,South
1691,49.264394,-123.145308,1,,W 8th Av,1762,South
1692,49.2644743,-123.1449634,1,,W 8th Av,1768,South
1693,49.2628046,-123.1083837,4,,W Broadway,130,South
1694,49.263056,-123.1152287,1,,W Broadway,500,South
1695,49.2637363,-123.1180045,1,,W Broadway,601,North
1696,49.2635824,-123.1190552,2,,W Broadway,665,North
1697,49.2635908,-123.1335235,2,,W Broadway,1285,North
1698,49.2638372,-123.1436626,1,,W Broadway,1701,North
1699,49.263791,-123.1632683,1,,W Broadway,2518,South
1700,49.2642003,-123.1633424,3,,W Broadway,2545,North
1701,49.2637855,-123.1671054,1,,W Broadway,2732,South
1702,49.2638023,-123.1702836,1,,W Broadway,2902,West
1703,49.2642437,-123.1706291,1,,W Broadway,2909,North
1704,49.2644419,-123.1719788,1,,W Broadway,2979,North
1705,49.2643864,-123.1724942,1,,W Broadway,3031,North
1706,49.264031,-123.1729093,1,,W Broadway,3036,South
1707,49.2639532,-123.1741984,1,,W Broadway,3102,South
1708,49.2639532,-123.1741984,2,,W Broadway,3102,West
1709,49.264385,-123.174163,1,,W Broadway,3105,West
1710,49.26405,-123.1747197,1,,W Broadway,3124,South
1711,49.2643191,-123.1749915,1,,W Broadway,3143,North
1712,49.2643174,-123.1750694,1,,W Broadway,3145,North
1713,49.2639265,-123.1752229,1,,W Broadway,3156,South
1714,49.2639265,-123.1752229,1,,W Broadway,3156,South
1715,49.2640653,-123.1766864,1,,W Broadway,3236,South
1716,49.2640653,-123.1766864,1,,W Broadway,3236,South
1717,49.2643842,-123.1775311,1,,W Broadway,3291,North
1718,49.2640213,-123.1781943,1,,W Broadway,3308,South
1719,49.2643192,-123.1783872,1,,W Broadway,3311,North
1720,49.2645516,-123.1784439,1,,W Broadway,3313,North
1721,49.264156,-123.1805259,1,,W Broadway,3428,South
1722,49.2644072,-123.180761,1,,W Broadway,3431,North
1723,49.2641773,-123.1816198,1,,W Broadway,3496,South
1724,49.2644747,-123.1827406,1,,W Broadway,3555,North
1725,49.2645201,-123.1850465,1,,W Broadway,3661,North
1726,49.2645729,-123.1852842,1,,W Broadway,3673,North
1727,49.2827686,-123.107187,1,,W Cordova St,108,South
1728,49.2835233,-123.1086988,2,,W Cordova St,175,East
1729,49.283558,-123.1093747,1,,W Cordova St,304,North
1730,49.2843153,-123.1099375,1,,W Cordova St,403,North
1731,49.2844088,-123.1102146,2,,W Cordova St,415,North
